{"type": "FeatureCollection", "features": [{"type":"Feature","geometry":{"type":"Polygon","coordinates":[[[-73.92920389683505,40.72676687498488],[-73.93558098986259,40.72571635855334],[-73.93754992379104,40.72125920871856],[-73.93314267246586,40.7178529073862],[-73.92676660481357,40.718903205013056],[-73.9247967632234,40.723360022747094],[-73.92920389683505,40.72676687498488]]]},"properties":{"h3_cell":"882a100d1bfffff","borough":"Brooklyn","zone_id":118,"zone_name":"H3 882a100d1bfffff","trips_total":32,"trips_peak_day":3,"trips_stddev_day":0.6370220572706061,"demand_accounts":24,"fleet_present":0,"hub_distance_m":2417,"charging_pois":0,"parking_pois":0,"transit_pois":1,"competitor_pois":0,"market_score_raw":0.247,"demand_score":0.8888888888888888,"coverage_gap_score":1.0,"market_score":0.3735,"saturation_score":1.0,"final_score":85.6}},
{"type":"Feature","geometry":{"type":"Polygon","coordinates":[[[-73.93408094439697,40.74249643118893],[-73.9404600890931,40.74144547693419],[-73.94242922694667,40.73698736954583],[-73.9380201286029,40.73358054848117],[-73.93164200989416,40.734631283788666],[-73.92967196365409,40.73908905907821],[-73.93408094439697,40.74249643118893]]]},"properties":{"h3_cell":"882a100d57fffff","borough":"Queens","zone_id":139,"zone_name":"H3 882a100d57fffff","trips_total":35,"trips_peak_day":4,"trips_stddev_day":0.7958224257542215,"demand_accounts":22,"fleet_present":3,"hub_distance_m":1653,"charging_pois":0,"parking_pois":0,"transit_pois":1,"competitor_pois":0,"market_score_raw":0.638,"demand_score":0.9722222222222222,"coverage_gap_score":0.6839056681836988,"market_score":0.569,"saturation_score":0.5,"final_score":77.8}},
{"type":"Feature","geometry":{"type":"Polygon","coordinates":[[[-73.95810411091955,40.75507373508407],[-73.96448454701392,40.75402131415529],[-73.96645196820877,40.74956206444353],[-73.96203986286912,40.74615556737789],[-73.9556604529423,40.74720776884231],[-73.95369212229988,40.751666686806786],[-73.95810411091955,40.75507373508407]]]},"properties":{"h3_cell":"882a100d0dfffff","borough":"Manhattan","zone_id":112,"zone_name":"H3 882a100d0dfffff","trips_total":32,"trips_peak_day":3,"trips_stddev_day":0.5958006000151015,"demand_accounts":16,"fleet_present":5,"hub_distance_m":2377,"charging_pois":0,"parking_pois":0,"transit_pois":0,"competitor_pois":0,"market_score_raw":0.015,"demand_score":0.8888888888888888,"coverage_gap_score":0.9834505585436492,"market_score":0.2075,"saturation_score":0.16666666666666663,"final_score":74.28}},
{"type":"Feature","geometry":{"type":"Polygon","coordinates":[[[-73.9434545025532,40.70788901101139],[-73.94982878623108,40.70683790579746],[-73.9517955996994,40.70238152922569],[-73.94738903687448,40.69897658959179],[-73.9410157775295,40.70002747576969],[-73.93904805678854,40.704483520587644],[-73.9434545025532,40.70788901101139]]]},"properties":{"h3_cell":"882a100debfffff","borough":"Brooklyn","zone_id":160,"zone_name":"H3 882a100debfffff","trips_total":36,"trips_peak_day":4,"trips_stddev_day":0.9514531821875087,"demand_accounts":23,"fleet_present":3,"hub_distance_m":1592,"charging_pois":0,"parking_pois":0,"transit_pois":0,"competitor_pois":0,"market_score_raw":0.054,"demand_score":1.0,"coverage_gap_score":0.6586677699627638,"market_score":0.227,"saturation_score":0.5,"final_score":73.17}},
{"type":"Feature","geometry":{"type":"Polygon","coordinates":[[[-73.93511150435661,40.71339623645131],[-73.94148668003639,40.71234553489215],[-73.9434545025532,40.70788901101139],[-73.93904805678854,40.704483520587644],[-73.93267390580984,40.70553400326202],[-73.93070517600681,40.709990195215056],[-73.93511150435661,40.71339623645131]]]},"properties":{"h3_cell":"882a100dc5fffff","borough":"Brooklyn","zone_id":151,"zone_name":"H3 882a100dc5fffff","trips_total":34,"trips_peak_day":4,"trips_stddev_day":0.8645047258706176,"demand_accounts":18,"fleet_present":6,"hub_distance_m":1895,"charging_pois":0,"parking_pois":0,"transit_pois":0,"competitor_pois":0,"market_score_raw":0.47,"demand_score":0.9444444444444444,"coverage_gap_score":0.7840297889946214,"market_score":0.435,"saturation_score":0.0,"final_score":72.55}},
{"type":"Feature","geometry":{"type":"Polygon","coordinates":[[[-73.92816938565204,40.755871817923655],[-73.93455045005994,40.75482104946636],[-73.93652070074987,40.75036231695001],[-73.93211079590694,40.74695468513301],[-73.92573075816176,40.74800523472332],[-73.9237595987092,40.75246363496773],[-73.92816938565204,40.755871817923655]]]},"properties":{"h3_cell":"882a100d5dfffff","borough":"Queens","zone_id":142,"zone_name":"H3 882a100d5dfffff","trips_total":33,"trips_peak_day":4,"trips_stddev_day":1.0431851677040116,"demand_accounts":27,"fleet_present":5,"hub_distance_m":1592,"charging_pois":0,"parking_pois":0,"transit_pois":2,"competitor_pois":1,"market_score_raw":0.045,"demand_score":0.9166666666666666,"coverage_gap_score":0.6586677699627638,"market_score":0.255833,"saturation_score":0.16666666666666663,"final_score":66.51}}]}
