{"type": "FeatureCollection", "features": [{"type":"Feature","geometry":{"type":"Polygon","coordinates":[[[-73.95464187881434,40.776320688988534],[-73.96102526311756,40.77526823378263],[-73.96299389803004,40.77080788035516],[-73.95858005893992,40.76740031402271],[-73.95219770178664,40.768452549772825],[-73.95022815668601,40.7729125712812],[-73.95464187881434,40.776320688988534]]]},"properties":{"zone_id":101,"h3_cell":"882a100893fffff","borough":"Manhattan","zone_name":"H3 882a100893fffff","demand_accounts":29,"fleet_present":9,"hub_distance_m":0,"trips_total":22,"trips_peak_day":2,"trips_stddev_day":0.5,"active_days":16,"mean_trip_km":11.668636363636365,"market_score_raw":0.729,"charging_pois":0,"parking_pois":1,"transit_pois":0,"competitor_pois":1,"total_pois":2,"demand_score":null,"coverage_gap_score":null,"market_score":null,"saturation_score":null,"final_score":null,"eligible":false}},
{"type":"Feature","geometry":{"type":"Polygon","coordinates":[[[-73.96544002797856,40.77867605891164],[-73.97182354441321,40.77762297916073],[-73.97379126878796,40.77316229398972],[-73.96937638737819,40.769755020283164],[-73.96299389803004,40.77080788035516],[-73.96102526311756,40.77526823378263],[-73.96544002797856,40.77867605891164]]]},"properties":{"zone_id":102,"h3_cell":"882a100897fffff","borough":"Manhattan","zone_name":"H3 882a100897fffff","demand_accounts":22,"fleet_present":10,"hub_distance_m":948,"trips_total":10,"trips_peak_day":1,"trips_stddev_day":0.0,"active_days":10,"mean_trip_km":14.401,"market_score_raw":0.797,"charging_pois":1,"parking_pois":0,"transit_pois":2,"competitor_pois":1,"total_pois":4,"demand_score":null,"coverage_gap_score":null,"market_score":null,"saturation_score":null,"final_score":null,"eligible":false}},
{"type":"Feature","geometry":{"type":"Polygon","coordinates":[[[-73.98458981348507,40.77551579030845],[-73.99097256583582,40.774461681304],[-73.99293836780527,40.770000811574135],[-73.98852232840895,40.766594382212226],[-73.98214060271079,40.767648271163246],[-73.98017388986867,40.77210880949957],[-73.98458981348507,40.77551579030845]]]},"properties":{"zone_id":103,"h3_cell":"882a1008b3fffff","borough":"Manhattan","zone_name":"H3 882a1008b3fffff","demand_accounts":24,"fleet_present":8,"hub_distance_m":2529,"trips_total":25,"trips_peak_day":3,"trips_stddev_day":0.7274384280931732,"active_days":16,"mean_trip_km":12.728,"market_score_raw":0.438,"charging_pois":0,"parking_pois":0,"transit_pois":1,"competitor_pois":0,"total_pois":1,"demand_score":null,"coverage_gap_score":null,"market_score":null,"saturation_score":null,"final_score":null,"eligible":false}},
{"type":"Feature","geometry":{"type":"Polygon","coordinates":[[[-73.9100711005047,40.72991636937165],[-73.91644895201311,40.728866880442176],[-73.91841980362815,40.72440991616406],[-73.9140137111729,40.72100277323514],[-73.90763688547042,40.72205204373415],[-73.90566512652957,40.72650867556273],[-73.9100711005047,40.72991636937165]]]},"properties":{"zone_id":104,"h3_cell":"882a100c21fffff","borough":"Queens","zone_name":"H3 882a100c21fffff","demand_accounts":21,"fleet_present":5,"hub_distance_m":1794,"trips_total":19,"trips_peak_day":3,"trips_stddev_day":0.5936168397046637,"active_days":15,"mean_trip_km":10.823684210526318,"market_score_raw":0.127,"charging_pois":2,"parking_pois":0,"transit_pois":0,"competitor_pois":0,"total_pois":3,"demand_score":null,"coverage_gap_score":null,"market_score":null,"saturation_score":null,"final_score":null,"eligible":false}},
{"type":"Feature","geometry":{"type":"Polygon","coordinates":[[[-73.920855967556,40.73227428360789],[-73.92723395289497,40.73122417153772],[-73.92920389683505,40.72676687498488],[-73.9247967632234,40.723360022747094],[-73.91841980362815,40.72440991616406],[-73.91644895201311,40.728866880442176],[-73.920855967556,40.73227428360789]]]},"properties":{"zone_id":105,"h3_cell":"882a100c25fffff","borough":"Queens","zone_name":"H3 882a100c25fffff","demand_accounts":36,"fleet_present":3,"hub_distance_m":1566,"trips_total":22,"trips_peak_day":3,"trips_stddev_day":0.8548504142651103,"active_days":13,"mean_trip_km":10.161363636363635,"market_score_raw":0.055,"charging_pois":1,"parking_pois":0,"transit_pois":0,"competitor_pois":1,"total_pois":2,"demand_score":null,"coverage_gap_score":null,"market_score":null,"saturation_score":null,"final_score":null,"eligible":false}},
{"type":"Feature","geometry":{"type":"Polygon","coordinates":[[[-73.91841980362815,40.72440991616406],[-73.9247967632234,40.723360022747094],[-73.92676660481357,40.718903205013056],[-73.9223603942335,40.71549661294172],[-73.91598446007585,40.71654628777667],[-73.9140137111729,40.72100277323514],[-73.91841980362815,40.72440991616406]]]},"properties":{"zone_id":106,"h3_cell":"882a100c27fffff","borough":"Queens","zone_name":"H3 882a100c27fffff","demand_accounts":34,"fleet_present":2,"hub_distance_m":2376,"trips_total":24,"trips_peak_day":2,"trips_stddev_day":0.48507125007266594,"active_days":18,"mean_trip_km":14.142083333333337,"market_score_raw":0.055,"charging_pois":1,"parking_pois":0,"transit_pois":0,"competitor_pois":0,"total_pois":1,"demand_score":null,"coverage_gap_score":null,"market_score":null,"saturation_score":null,"final_score":null,"eligible":false}},
{"type":"Feature","geometry":{"type":"Polygon","coordinates":[[[-73.91250613565795,40.7377814340547],[-73.91888501327863,40.73673172662361],[-73.920855967556,40.73227428360789],[-73.91644895201311,40.728866880442176],[-73.9100711005047,40.72991636937165],[-73.90809923853928,40.734373479938625],[-73.91250613565795,40.7377814340547]]]},"properties":{"zone_id":107,"h3_cell":"882a100c2dfffff","borough":"Queens","zone_name":"H3 882a100c2dfffff","demand_accounts":19,"fleet_present":4,"hub_distance_m":897,"trips_total":24,"trips_peak_day":3,"trips_stddev_day":0.7262730392025629,"active_days":14,"mean_trip_km":12.643333333333333,"market_score_raw":0.287,"charging_pois":1,"parking_pois":1,"transit_pois":1,"competitor_pois":1,"total_pois":4,"demand_score":null,"coverage_gap_score":null,"market_score":null,"saturation_score":null,"final_score":null,"eligible":false}},
{"type":"Feature","geometry":{"type":"Polygon","coordinates":[[[-73.9556604529423,40.74720776884231],[-73.96203986286912,40.74615556737789],[-73.96400718290253,40.7416967963174],[-73.95959600220597,40.73829055843984],[-73.95321761814058,40.73934254051135],[-73.9512493890226,40.743800979823405],[-73.9556604529423,40.74720776884231]]]},"properties":{"zone_id":108,"h3_cell":"882a100d01fffff","borough":"Queens","zone_name":"H3 882a100d01fffff","demand_accounts":24,"fleet_present":5,"hub_distance_m":2512,"trips_total":19,"trips_peak_day":3,"trips_stddev_day":0.6333236937766509,"active_days":14,"mean_trip_km":9.604736842105263,"market_score_raw":0.516,"charging_pois":0,"parking_pois":1,"transit_pois":1,"competitor_pois":1,"total_pois":3,"demand_score":null,"coverage_gap_score":null,"market_score":null,"saturation_score":null,"final_score":null,"eligible":false}},
{"type":"Feature","geometry":{"type":"Polygon","coordinates":[[[-73.95321761814058,40.73934254051135],[-73.95959600220597,40.73829055843984],[-73.96156322102732,40.73383226611286],[-73.95715296461731,40.73042628757708],[-73.95077560610743,40.73147805032713],[-73.94880747856428,40.7359360109045],[-73.95321761814058,40.73934254051135]]]},"properties":{"zone_id":109,"h3_cell":"882a100d03fffff","borough":"Brooklyn","zone_name":"H3 882a100d03fffff","demand_accounts":24,"fleet_present":5,"hub_distance_m":2376,"trips_total":27,"trips_peak_day":3,"trips_stddev_day":0.6020797289396148,"active_days":16,"mean_trip_km":11.531851851851851,"market_score_raw":0.516,"charging_pois":1,"parking_pois":0,"transit_pois":0,"competitor_pois":0,"total_pois":1,"demand_score":null,"coverage_gap_score":null,"market_score":null,"saturation_score":null,"final_score":null,"eligible":false}},
{"type":"Feature","geometry":{"type":"Polygon","coordinates":[[[-73.94731181852703,40.75271848385966],[-73.95369212229988,40.751666686806786],[-73.9556604529423,40.74720776884231],[-73.9512493890226,40.743800979823405],[-73.94487011148044,40.74485255763481],[-73.94290087173961,40.74931114367667],[-73.94731181852703,40.75271848385966]]]},"properties":{"zone_id":110,"h3_cell":"882a100d09fffff","borough":"Queens","zone_name":"H3 882a100d09fffff","demand_accounts":26,"fleet_present":8,"hub_distance_m":2692,"trips_total":16,"trips_peak_day":2,"trips_stddev_day":0.4385290096535146,"active_days":13,"mean_trip_km":13.003750000000002,"market_score_raw":0.818,"charging_pois":1,"parking_pois":0,"transit_pois":1,"competitor_pois":0,"total_pois":2,"demand_score":null,"coverage_gap_score":null,"market_score":null,"saturation_score":null,"final_score":null,"eligible":false}},
{"type":"Feature","geometry":{"type":"Polygon","coordinates":[[[-73.94487011148044,40.74485255763481],[-73.9512493890226,40.743800979823405],[-73.95321761814058,40.73934254051135],[-73.94880747856428,40.7359360109045],[-73.94242922694667,40.73698736954583],[-73.9404600890931,40.74144547693419],[-73.94487011148044,40.74485255763481]]]},"properties":{"zone_id":111,"h3_cell":"882a100d0bfffff","borough":"Queens","zone_name":"H3 882a100d0bfffff","demand_accounts":26,"fleet_present":3,"hub_distance_m":2528,"trips_total":24,"trips_peak_day":3,"trips_stddev_day":0.6183469424008423,"active_days":17,"mean_trip_km":13.248333333333333,"market_score_raw":0.709,"charging_pois":1,"parking_pois":0,"transit_pois":1,"competitor_pois":0,"total_pois":4,"demand_score":null,"coverage_gap_score":null,"market_score":null,"saturation_score":null,"final_score":null,"eligible":false}},
{"type":"Feature","geometry":{"type":"Polygon","coordinates":[[[-73.95810411091955,40.75507373508407],[-73.96448454701392,40.75402131415529],[-73.96645196820877,40.74956206444353],[-73.96203986286912,40.74615556737789],[-73.9556604529423,40.74720776884231],[-73.95369212229988,40.751666686806786],[-73.95810411091955,40.75507373508407]]]},"properties":{"zone_id":112,"h3_cell":"882a100d0dfffff","borough":"Manhattan","zone_name":"H3 882a100d0dfffff","demand_accounts":16,"fleet_present":5,"hub_distance_m":2377,"trips_total":32,"trips_peak_day":3,"trips_stddev_day":0.5958006000151016,"active_days":22,"mean_trip_km":11.542187500000002,"market_score_raw":0.015,"charging_pois":0,"parking_pois":0,"transit_pois":0,"competitor_pois":0,"total_pois":1,"demand_score":0.8888888888888888,"coverage_gap_score":0.9834505585436492,"market_score":0.2075,"saturation_score":0.16666666666666663,"final_score":74.28,"eligible":true}},
{"type":"Feature","geometry":{"type":"Polygon","coordinates":[[[-73.939989164519,40.72912291982855],[-73.94636639051812,40.72807178028594],[-73.94833441643608,40.72361429852538],[-73.9439261244776,40.72020828820333],[-73.93754992379104,40.72125920871856],[-73.93558098986259,40.72571635855334],[-73.939989164519,40.72912291982855]]]},"properties":{"zone_id":113,"h3_cell":"882a100d11fffff","borough":"Brooklyn","zone_name":"H3 882a100d11fffff","demand_accounts":23,"fleet_present":5,"hub_distance_m":1866,"trips_total":29,"trips_peak_day":4,"trips_stddev_day":0.8837151016885368,"active_days":15,"mean_trip_km":13.911034482758621,"market_score_raw":0.2,"charging_pois":0,"parking_pois":0,"transit_pois":0,"competitor_pois":0,"total_pois":0,"demand_score":null,"coverage_gap_score":null,"market_score":null,"saturation_score":null,"final_score":null,"eligible":false}},
{"type":"Feature","geometry":{"type":"Polygon","coordinates":[[[-73.93754992379104,40.72125920871856],[-73.9439261244776,40.72020828820333],[-73.94589404872008,40.71575128534168],[-73.94148668003639,40.71234553489215],[-73.93511150435661,40.71339623645131],[-73.93314267246586,40.7178529073862],[-73.93754992379104,40.72125920871856]]]},"properties":{"zone_id":114,"h3_cell":"882a100d13fffff","borough":"Brooklyn","zone_name":"H3 882a100d13fffff","demand_accounts":31,"fleet_present":3,"hub_distance_m":1653,"trips_total":26,"trips_peak_day":3,"trips_stddev_day":0.7047921864945659,"active_days":18,"mean_trip_km":9.589230769230769,"market_score_raw":0.247,"charging_pois":0,"parking_pois":1,"transit_pois":0,"competitor_pois":1,"total_pois":2,"demand_score":null,"coverage_gap_score":null,"market_score":null,"saturation_score":null,"final_score":null,"eligible":false}},
{"type":"Feature","geometry":{"type":"Polygon","coordinates":[[[-73.95077560610743,40.73147805032713],[-73.95715296461731,40.73042628757708],[-73.95912008217606,40.72596847406582],[-73.95471074969629,40.72256275502541],[-73.94833441643608,40.72361429852538],[-73.94636639051812,40.72807178028594],[-73.95077560610743,40.73147805032713]]]},"properties":{"zone_id":115,"h3_cell":"882a100d15fffff","borough":"Brooklyn","zone_name":"H3 882a100d15fffff","demand_accounts":19,"fleet_present":8,"hub_distance_m":1566,"trips_total":29,"trips_peak_day":3,"trips_stddev_day":0.5679003631895497,"active_days":22,"mean_trip_km":13.27344827586207,"market_score_raw":0.87,"charging_pois":0,"parking_pois":0,"transit_pois":0,"competitor_pois":0,"total_pois":0,"demand_score":null,"coverage_gap_score":null,"market_score":null,"saturation_score":null,"final_score":null,"eligible":false}},
{"type":"Feature","geometry":{"type":"Polygon","coordinates":[[[-73.94833441643608,40.72361429852538],[-73.95471074969629,40.72256275502541],[-73.95667776594193,40.71810542041197],[-73.95226935703634,40.71469996102039],[-73.94589404872008,40.71575128534168],[-73.9439261244776,40.72020828820333],[-73.94833441643608,40.72361429852538]]]},"properties":{"zone_id":116,"h3_cell":"882a100d17fffff","borough":"Brooklyn","zone_name":"H3 882a100d17fffff","demand_accounts":26,"fleet_present":9,"hub_distance_m":933,"trips_total":22,"trips_peak_day":3,"trips_stddev_day":0.5878675320972555,"active_days":17,"mean_trip_km":10.865454545454545,"market_score_raw":0.87,"charging_pois":0,"parking_pois":0,"transit_pois":0,"competitor_pois":0,"total_pois":0,"demand_score":null,"coverage_gap_score":null,"market_score":null,"saturation_score":null,"final_score":null,"eligible":false}},
{"type":"Feature","geometry":{"type":"Polygon","coordinates":[[[-73.93164200989416,40.734631283788666],[-73.9380201286029,40.73358054848117],[-73.939989164519,40.72912291982855],[-73.93558098986259,40.72571635855334],[-73.92920389683505,40.72676687498488],[-73.92723395289497,40.73122417153772],[-73.93164200989416,40.734631283788666]]]},"properties":{"zone_id":117,"h3_cell":"882a100d19fffff","borough":"Queens","zone_name":"H3 882a100d19fffff","demand_accounts":16,"fleet_present":5,"hub_distance_m":1866,"trips_total":15,"trips_peak_day":3,"trips_stddev_day":0.621581560508061,"active_days":12,"mean_trip_km":14.05,"market_score_raw":0.638,"charging_pois":0,"parking_pois":2,"transit_pois":0,"competitor_pois":0,"total_pois":2,"demand_score":null,"coverage_gap_score":null,"market_score":null,"saturation_score":null,"final_score":null,"eligible":false}},
{"type":"Feature","geometry":{"type":"Polygon","coordinates":[[[-73.92920389683505,40.72676687498488],[-73.93558098986259,40.72571635855334],[-73.93754992379104,40.72125920871856],[-73.93314267246586,40.7178529073862],[-73.92676660481357,40.718903205013056],[-73.9247967632234,40.723360022747094],[-73.92920389683505,40.72676687498488]]]},"properties":{"zone_id":118,"h3_cell":"882a100d1bfffff","borough":"Brooklyn","zone_name":"H3 882a100d1bfffff","demand_accounts":24,"fleet_present":0,"hub_distance_m":2417,"trips_total":32,"trips_peak_day":3,"trips_stddev_day":0.6370220572706061,"active_days":24,"mean_trip_km":12.661874999999998,"market_score_raw":0.247,"charging_pois":0,"parking_pois":0,"transit_pois":1,"competitor_pois":0,"total_pois":1,"demand_score":0.8888888888888888,"coverage_gap_score":1.0,"market_score":0.3735,"saturation_score":1.0,"final_score":85.6,"eligible":true}},
{"type":"Feature","geometry":{"type":"Polygon","coordinates":[[[-73.94242922694667,40.73698736954583],[-73.94880747856428,40.7359360109045],[-73.95077560610743,40.73147805032713],[-73.94636639051812,40.72807178028594],[-73.939989164519,40.72912291982855],[-73.9380201286029,40.73358054848117],[-73.94242922694667,40.73698736954583]]]},"properties":{"zone_id":119,"h3_cell":"882a100d1dfffff","borough":"Brooklyn","zone_name":"H3 882a100d1dfffff","demand_accounts":22,"fleet_present":5,"hub_distance_m":2417,"trips_total":23,"trips_peak_day":4,"trips_stddev_day":0.8338093878327919,"active_days":15,"mean_trip_km":10.957391304347826,"market_score_raw":0.709,"charging_pois":0,"parking_pois":0,"transit_pois":0,"competitor_pois":0,"total_pois":0,"demand_score":null,"coverage_gap_score":null,"market_score":null,"saturation_score":null,"final_score":null,"eligible":false}},
{"type":"Feature","geometry":{"type":"Polygon","coordinates":[[[-73.98558983083457,40.74640256098021],[-73.99196860947467,40.74534870804113],[-73.99393310003853,40.74088942151729],[-73.98951972184216,40.73748431912606],[-73.98314196856704,40.738537952075355],[-73.98117656823543,40.742996907375684],[-73.98558983083457,40.74640256098021]]]},"properties":{"zone_id":120,"h3_cell":"882a100d21fffff","borough":"Manhattan","zone_name":"H3 882a100d21fffff","demand_accounts":26,"fleet_present":8,"hub_distance_m":897,"trips_total":20,"trips_peak_day":2,"trips_stddev_day":0.4472135954999579,"active_days":16,"mean_trip_km":13.552499999999998,"market_score_raw":0.788,"charging_pois":0,"parking_pois":0,"transit_pois":0,"competitor_pois":0,"total_pois":0,"demand_score":null,"coverage_gap_score":null,"market_score":null,"saturation_score":null,"final_score":null,"eligible":false}},
{"type":"Feature","geometry":{"type":"Polygon","coordinates":[[[-73.98314196856704,40.738537952075355],[-73.98951972184216,40.73748431912606],[-73.991484112232,40.733025511414105],[-73.98707165886354,40.72962066784637],[-73.9806949306478,40.73067408087751],[-73.97872963085321,40.735132557364565],[-73.98314196856704,40.738537952075355]]]},"properties":{"zone_id":121,"h3_cell":"882a100d23fffff","borough":"Manhattan","zone_name":"H3 882a100d23fffff","demand_accounts":26,"fleet_present":12,"hub_distance_m":0,"trips_total":23,"trips_peak_day":2,"trips_stddev_day":0.4608885989624768,"active_days":18,"mean_trip_km":15.008260869565214,"market_score_raw":0.788,"charging_pois":2,"parking_pois":1,"transit_pois":1,"competitor_pois":1,"total_pois":6,"demand_score":null,"coverage_gap_score":null,"market_score":null,"saturation_score":null,"final_score":null,"eligible":false}},
{"type":"Feature","geometry":{"type":"Polygon","coordinates":[[[-73.99638291285558,40.748754069101984],[-74.00276182209714,40.747699592348475],[-74.00472540254478,40.743239974776706],[-74.00031098397913,40.73983516497632],[-73.99393310003853,40.74088942151729],[-73.99196860947467,40.74534870804113],[-73.99638291285558,40.748754069101984]]]},"properties":{"zone_id":122,"h3_cell":"882a100d25fffff","borough":"Manhattan","zone_name":"H3 882a100d25fffff","demand_accounts":24,"fleet_present":10,"hub_distance_m":1592,"trips_total":15,"trips_peak_day":2,"trips_stddev_day":0.37553380809940534,"active_days":13,"mean_trip_km":10.38,"market_score_raw":0.726,"charging_pois":0,"parking_pois":0,"transit_pois":2,"competitor_pois":0,"total_pois":2,"demand_score":null,"coverage_gap_score":null,"market_score":null,"saturation_score":null,"final_score":null,"eligible":false}},
{"type":"Feature","geometry":{"type":"Polygon","coordinates":[[[-73.99393310003853,40.74088942151729],[-74.00031098397913,40.73983516497632],[-74.0022744646159,40.735376026215015],[-73.99786097117715,40.73197147501401],[-73.991484112232,40.733025511414105],[-73.98951972184216,40.73748431912606],[-73.99393310003853,40.74088942151729]]]},"properties":{"zone_id":123,"h3_cell":"882a100d27fffff","borough":"Manhattan","zone_name":"H3 882a100d27fffff","demand_accounts":24,"fleet_present":9,"hub_distance_m":948,"trips_total":33,"trips_peak_day":3,"trips_stddev_day":0.6708203932499369,"active_days":20,"mean_trip_km":11.766969696969696,"market_score_raw":0.726,"charging_pois":0,"parking_pois":1,"transit_pois":0,"competitor_pois":2,"total_pois":3,"demand_score":null,"coverage_gap_score":null,"market_score":null,"saturation_score":null,"final_score":null,"eligible":false}},
{"type":"Feature","geometry":{"type":"Polygon","coordinates":[[[-73.9772446567056,40.75191544407061],[-73.98362433001691,40.750861995011526],[-73.98558983083457,40.74640256098021],[-73.98117656823543,40.742996907375684],[-73.97479792065865,40.74405013659621],[-73.97283151005868,40.74850923922983],[-73.9772446567056,40.75191544407061]]]},"properties":{"zone_id":124,"h3_cell":"882a100d29fffff","borough":"Manhattan","zone_name":"H3 882a100d29fffff","demand_accounts":22,"fleet_present":6,"hub_distance_m":1566,"trips_total":27,"trips_peak_day":4,"trips_stddev_day":0.9464847243000457,"active_days":16,"mean_trip_km":13.472222222222225,"market_score_raw":0.758,"charging_pois":1,"parking_pois":0,"transit_pois":0,"competitor_pois":1,"total_pois":2,"demand_score":null,"coverage_gap_score":null,"market_score":null,"saturation_score":null,"final_score":null,"eligible":false}},
{"type":"Feature","geometry":{"type":"Polygon","coordinates":[[[-73.97479792065865,40.74405013659621],[-73.98117656823543,40.742996907375684],[-73.98314196856704,40.738537952075355],[-73.97872963085321,40.735132557364565],[-73.97235200870517,40.736185566818094],[-73.97038569895436,40.74064419071943],[-73.97479792065865,40.74405013659621]]]},"properties":{"zone_id":125,"h3_cell":"882a100d2bfffff","borough":"Manhattan","zone_name":"H3 882a100d2bfffff","demand_accounts":16,"fleet_present":11,"hub_distance_m":933,"trips_total":29,"trips_peak_day":3,"trips_stddev_day":0.7775443160352296,"active_days":18,"mean_trip_km":11.409655172413794,"market_score_raw":0.045,"charging_pois":2,"parking_pois":0,"transit_pois":1,"competitor_pois":0,"total_pois":3,"demand_score":null,"coverage_gap_score":null,"market_score":null,"saturation_score":null,"final_score":null,"eligible":false}},
{"type":"Feature","geometry":{"type":"Polygon","coordinates":[[[-73.98803851785813,40.75426790735591],[-73.99441832216888,40.75321383435542],[-73.99638291285558,40.748754069101984],[-73.99196860947467,40.74534870804113],[-73.98558983083457,40.74640256098021],[-73.98362433001691,40.750861995011526],[-73.98803851785813,40.75426790735591]]]},"properties":{"zone_id":126,"h3_cell":"882a100d2dfffff","borough":"Manhattan","zone_name":"H3 882a100d2dfffff","demand_accounts":24,"fleet_present":11,"hub_distance_m":1794,"trips_total":34,"trips_peak_day":4,"trips_stddev_day":0.8549819600709617,"active_days":19,"mean_trip_km":14.247352941176468,"market_score_raw":0.493,"charging_pois":0,"parking_pois":0,"transit_pois":0,"competitor_pois":0,"total_pois":0,"demand_score":null,"coverage_gap_score":null,"market_score":null,"saturation_score":null,"final_score":null,"eligible":false}},
{"type":"Feature","geometry":{"type":"Polygon","coordinates":[[[-73.9806949306478,40.73067408087751],[-73.98707165886354,40.72962066784637],[-73.98903594902826,40.72516233902854],[-73.98462442013124,40.72175775443809],[-73.97824871666947,40.72281094762265],[-73.97628351746279,40.72726894521427],[-73.9806949306478,40.73067408087751]]]},"properties":{"zone_id":127,"h3_cell":"882a100d35fffff","borough":"Manhattan","zone_name":"H3 882a100d35fffff","demand_accounts":25,"fleet_present":10,"hub_distance_m":897,"trips_total":30,"trips_peak_day":5,"trips_stddev_day":1.2583057392117916,"active_days":16,"mean_trip_km":13.177333333333337,"market_score_raw":0.932,"charging_pois":1,"parking_pois":1,"transit_pois":0,"competitor_pois":0,"total_pois":2,"demand_score":null,"coverage_gap_score":null,"market_score":null,"saturation_score":null,"final_score":null,"eligible":false}},
{"type":"Feature","geometry":{"type":"Polygon","coordinates":[[[-73.97824871666947,40.72281094762265],[-73.98462442013124,40.72175775443809],[-73.98658861001985,40.71729990459653],[-73.98217800523803,40.713895579137024],[-73.97580332622488,40.71494855254654],[-73.97383822765691,40.71940607116063],[-73.97824871666947,40.72281094762265]]]},"properties":{"zone_id":128,"h3_cell":"882a100d37fffff","borough":"Manhattan","zone_name":"H3 882a100d37fffff","demand_accounts":33,"fleet_present":8,"hub_distance_m":1794,"trips_total":28,"trips_peak_day":2,"trips_stddev_day":0.5129891760425771,"active_days":19,"mean_trip_km":11.339642857142858,"market_score_raw":0.932,"charging_pois":2,"parking_pois":0,"transit_pois":1,"competitor_pois":0,"total_pois":3,"demand_score":null,"coverage_gap_score":null,"market_score":null,"saturation_score":null,"final_score":null,"eligible":false}},
{"type":"Feature","geometry":{"type":"Polygon","coordinates":[[[-73.95912008217606,40.72596847406582],[-73.96549654754912,40.724916307484854],[-73.9674626554495,40.72045864129473],[-73.96305320643414,40.71705347323234],[-73.95667776594193,40.71810542041197],[-73.95471074969629,40.72256275502541],[-73.95912008217606,40.72596847406582]]]},"properties":{"zone_id":129,"h3_cell":"882a100d3bfffff","borough":"Brooklyn","zone_name":"H3 882a100d3bfffff","demand_accounts":18,"fleet_present":7,"hub_distance_m":897,"trips_total":36,"trips_peak_day":3,"trips_stddev_day":0.6859943405700354,"active_days":18,"mean_trip_km":12.650833333333331,"market_score_raw":0.377,"charging_pois":0,"parking_pois":1,"transit_pois":0,"competitor_pois":0,"total_pois":2,"demand_score":null,"coverage_gap_score":null,"market_score":null,"saturation_score":null,"final_score":null,"eligible":false}},
{"type":"Feature","geometry":{"type":"Polygon","coordinates":[[[-73.97235200870517,40.736185566818094],[-73.97872963085321,40.735132557364565],[-73.9806949306478,40.73067408087751],[-73.97628351746279,40.72726894521427],[-73.96990692043782,40.728321734972326],[-73.96794071158689,40.732779880059134],[-73.97235200870517,40.736185566818094]]]},"properties":{"zone_id":130,"h3_cell":"882a100d3dfffff","borough":"Manhattan","zone_name":"H3 882a100d3dfffff","demand_accounts":24,"fleet_present":9,"hub_distance_m":948,"trips_total":16,"trips_peak_day":2,"trips_stddev_day":0.2581988897471611,"active_days":15,"mean_trip_km":12.386249999999999,"market_score_raw":0.045,"charging_pois":0,"parking_pois":1,"transit_pois":1,"competitor_pois":0,"total_pois":2,"demand_score":null,"coverage_gap_score":null,"market_score":null,"saturation_score":null,"final_score":null,"eligible":false}},
{"type":"Feature","geometry":{"type":"Polygon","coordinates":[[[-73.94140268063268,40.76609630261095],[-73.94778490512893,40.76504469108637],[-73.94975434849336,40.76058514798439],[-73.94534247694921,40.75717754847276],[-73.93896127935948,40.758228940836034],[-73.93699092651983,40.76268815184233],[-73.94140268063268,40.76609630261095]]]},"properties":{"zone_id":131,"h3_cell":"882a100d41fffff","borough":"Queens","zone_name":"H3 882a100d41fffff","demand_accounts":31,"fleet_present":3,"hub_distance_m":1593,"trips_total":23,"trips_peak_day":4,"trips_stddev_day":0.8418973861410954,"active_days":14,"mean_trip_km":12.575217391304346,"market_score_raw":0.11,"charging_pois":0,"parking_pois":0,"transit_pois":0,"competitor_pois":0,"total_pois":1,"demand_score":null,"coverage_gap_score":null,"market_score":null,"saturation_score":null,"final_score":null,"eligible":false}},
{"type":"Feature","geometry":{"type":"Polygon","coordinates":[[[-73.93896127935948,40.758228940836034],[-73.94534247694921,40.75717754847276],[-73.94731181852703,40.75271848385966],[-73.94290087173961,40.74931114367667],[-73.93652070074987,40.75036231695001],[-73.93455045005994,40.75482104946636],[-73.93896127935948,40.758228940836034]]]},"properties":{"zone_id":132,"h3_cell":"882a100d43fffff","borough":"Queens","zone_name":"H3 882a100d43fffff","demand_accounts":21,"fleet_present":7,"hub_distance_m":2405,"trips_total":43,"trips_peak_day":4,"trips_stddev_day":1.0576280419404613,"active_days":23,"mean_trip_km":12.72046511627907,"market_score_raw":0.818,"charging_pois":0,"parking_pois":1,"transit_pois":0,"competitor_pois":0,"total_pois":2,"demand_score":null,"coverage_gap_score":null,"market_score":null,"saturation_score":null,"final_score":null,"eligible":false}},
{"type":"Feature","geometry":{"type":"Polygon","coordinates":[[[-73.95219770178664,40.768452549772825],[-73.95858005893992,40.76740031402271],[-73.96054859247963,40.76294043900045],[-73.95613567880322,40.75953313161864],[-73.94975434849336,40.76058514798439],[-73.94778490512893,40.76504469108637],[-73.95219770178664,40.768452549772825]]]},"properties":{"zone_id":133,"h3_cell":"882a100d45fffff","borough":"Manhattan","zone_name":"H3 882a100d45fffff","demand_accounts":26,"fleet_present":10,"hub_distance_m":897,"trips_total":25,"trips_peak_day":3,"trips_stddev_day":0.6978023391872252,"active_days":18,"mean_trip_km":11.976399999999998,"market_score_raw":0.729,"charging_pois":0,"parking_pois":0,"transit_pois":2,"competitor_pois":1,"total_pois":4,"demand_score":null,"coverage_gap_score":null,"market_score":null,"saturation_score":null,"final_score":null,"eligible":false}},
{"type":"Feature","geometry":{"type":"Polygon","coordinates":[[[-73.93304910704023,40.77160719843],[-73.93943222569354,40.77055599202478],[-73.94140268063268,40.76609630261095],[-73.93699092651983,40.76268815184233],[-73.93060883514258,40.76373913923792],[-73.92863747071466,40.76819849638185],[-73.93304910704023,40.77160719843]]]},"properties":{"zone_id":134,"h3_cell":"882a100d49fffff","borough":"Queens","zone_name":"H3 882a100d49fffff","demand_accounts":22,"fleet_present":7,"hub_distance_m":1896,"trips_total":28,"trips_peak_day":4,"trips_stddev_day":0.990430401872025,"active_days":15,"mean_trip_km":11.74642857142857,"market_score_raw":0.112,"charging_pois":0,"parking_pois":0,"transit_pois":0,"competitor_pois":0,"total_pois":0,"demand_score":null,"coverage_gap_score":null,"market_score":null,"saturation_score":null,"final_score":null,"eligible":false}},
{"type":"Feature","geometry":{"type":"Polygon","coordinates":[[[-73.93060883514258,40.76373913923792],[-73.93699092651983,40.76268815184233],[-73.93896127935948,40.758228940836034],[-73.93455045005994,40.75482104946636],[-73.92816938565204,40.755871817923655],[-73.92619812368679,40.76033069665902],[-73.93060883514258,40.76373913923792]]]},"properties":{"zone_id":135,"h3_cell":"882a100d4bfffff","borough":"Queens","zone_name":"H3 882a100d4bfffff","demand_accounts":20,"fleet_present":6,"hub_distance_m":2405,"trips_total":16,"trips_peak_day":3,"trips_stddev_day":0.5345224838248488,"active_days":14,"mean_trip_km":11.855625,"market_score_raw":0.045,"charging_pois":0,"parking_pois":0,"transit_pois":0,"competitor_pois":0,"total_pois":0,"demand_score":null,"coverage_gap_score":null,"market_score":null,"saturation_score":null,"final_score":null,"eligible":false}},
{"type":"Feature","geometry":{"type":"Polygon","coordinates":[[[-73.92573075816176,40.74800523472332],[-73.93211079590694,40.74695468513301],[-73.93408094439697,40.74249643118893],[-73.92967196365409,40.73908905907821],[-73.92329295226519,40.74013938987282],[-73.92132189537527,40.74459731154399],[-73.92573075816176,40.74800523472332]]]},"properties":{"zone_id":136,"h3_cell":"882a100d51fffff","borough":"Queens","zone_name":"H3 882a100d51fffff","demand_accounts":29,"fleet_present":9,"hub_distance_m":948,"trips_total":18,"trips_peak_day":2,"trips_stddev_day":0.4688072309384954,"active_days":14,"mean_trip_km":15.81722222222222,"market_score_raw":0.258,"charging_pois":0,"parking_pois":1,"transit_pois":0,"competitor_pois":0,"total_pois":1,"demand_score":null,"coverage_gap_score":null,"market_score":null,"saturation_score":null,"final_score":null,"eligible":false}},
{"type":"Feature","geometry":{"type":"Polygon","coordinates":[[[-73.92329295226519,40.74013938987282],[-73.92967196365409,40.73908905907821],[-73.93164200989416,40.734631283788666],[-73.92723395289497,40.73122417153772],[-73.920855967556,40.73227428360789],[-73.91888501327863,40.73673172662361],[-73.92329295226519,40.74013938987282]]]},"properties":{"zone_id":137,"h3_cell":"882a100d53fffff","borough":"Queens","zone_name":"H3 882a100d53fffff","demand_accounts":31,"fleet_present":4,"hub_distance_m":933,"trips_total":27,"trips_peak_day":3,"trips_stddev_day":0.7685331969757724,"active_days":19,"mean_trip_km":11.752962962962961,"market_score_raw":0.258,"charging_pois":1,"parking_pois":0,"transit_pois":1,"competitor_pois":1,"total_pois":5,"demand_score":null,"coverage_gap_score":null,"market_score":null,"saturation_score":null,"final_score":null,"eligible":false}},
{"type":"Feature","geometry":{"type":"Polygon","coordinates":[[[-73.93652070074987,40.75036231695001],[-73.94290087173961,40.74931114367667],[-73.94487011148044,40.74485255763481],[-73.9404600890931,40.74144547693419],[-73.93408094439697,40.74249643118893],[-73.93211079590694,40.74695468513301],[-73.93652070074987,40.75036231695001]]]},"properties":{"zone_id":138,"h3_cell":"882a100d55fffff","borough":"Queens","zone_name":"H3 882a100d55fffff","demand_accounts":26,"fleet_present":7,"hub_distance_m":1896,"trips_total":18,"trips_peak_day":3,"trips_stddev_day":0.6112498455021266,"active_days":14,"mean_trip_km":10.6,"market_score_raw":0.045,"charging_pois":0,"parking_pois":0,"transit_pois":0,"competitor_pois":0,"total_pois":1,"demand_score":null,"coverage_gap_score":null,"market_score":null,"saturation_score":null,"final_score":null,"eligible":false}},
{"type":"Feature","geometry":{"type":"Polygon","coordinates":[[[-73.93408094439697,40.74249643118893],[-73.9404600890931,40.74144547693419],[-73.94242922694667,40.73698736954583],[-73.9380201286029,40.73358054848117],[-73.93164200989416,40.734631283788666],[-73.92967196365409,40.73908905907821],[-73.93408094439697,40.74249643118893]]]},"properties":{"zone_id":139,"h3_cell":"882a100d57fffff","borough":"Queens","zone_name":"H3 882a100d57fffff","demand_accounts":22,"fleet_present":3,"hub_distance_m":1653,"trips_total":35,"trips_peak_day":4,"trips_stddev_day":0.7958224257542214,"active_days":21,"mean_trip_km":12.608857142857143,"market_score_raw":0.638,"charging_pois":0,"parking_pois":0,"transit_pois":1,"competitor_pois":0,"total_pois":1,"demand_score":0.9722222222222222,"coverage_gap_score":0.6839056681836988,"market_score":0.569,"saturation_score":0.5,"final_score":77.8,"eligible":true}},
{"type":"Feature","geometry":{"type":"Polygon","coordinates":[[[-73.91737866794465,40.75351377961567],[-73.9237595987092,40.75246363496773],[-73.92573075816176,40.74800523472332],[-73.92132189537527,40.74459731154399],[-73.91494199133595,40.7456472375479],[-73.91296992347031,40.750105305345315],[-73.91737866794465,40.75351377961567]]]},"properties":{"zone_id":140,"h3_cell":"882a100d59fffff","borough":"Queens","zone_name":"H3 882a100d59fffff","demand_accounts":20,"fleet_present":5,"hub_distance_m":897,"trips_total":30,"trips_peak_day":3,"trips_stddev_day":0.6761234037828132,"active_days":21,"mean_trip_km":14.177999999999997,"market_score_raw":0.157,"charging_pois":0,"parking_pois":0,"transit_pois":1,"competitor_pois":0,"total_pois":1,"demand_score":null,"coverage_gap_score":null,"market_score":null,"saturation_score":null,"final_score":null,"eligible":false}},
{"type":"Feature","geometry":{"type":"Polygon","coordinates":[[[-73.91494199133595,40.7456472375479],[-73.92132189537527,40.74459731154399],[-73.92329295226519,40.74013938987282],[-73.91888501327863,40.73673172662361],[-73.91250613565795,40.7377814340547],[-73.9105341707176,40.74223902327799],[-73.91494199133595,40.7456472375479]]]},"properties":{"zone_id":141,"h3_cell":"882a100d5bfffff","borough":"Queens","zone_name":"H3 882a100d5bfffff","demand_accounts":25,"fleet_present":6,"hub_distance_m":0,"trips_total":25,"trips_peak_day":2,"trips_stddev_day":0.5016313257045503,"active_days":18,"mean_trip_km":12.104000000000001,"market_score_raw":0.287,"charging_pois":0,"parking_pois":0,"transit_pois":2,"competitor_pois":0,"total_pois":2,"demand_score":null,"coverage_gap_score":null,"market_score":null,"saturation_score":null,"final_score":null,"eligible":false}},
{"type":"Feature","geometry":{"type":"Polygon","coordinates":[[[-73.92816938565204,40.755871817923655],[-73.93455045005994,40.75482104946636],[-73.93652070074987,40.75036231695001],[-73.93211079590694,40.74695468513301],[-73.92573075816176,40.74800523472332],[-73.9237595987092,40.75246363496773],[-73.92816938565204,40.755871817923655]]]},"properties":{"zone_id":142,"h3_cell":"882a100d5dfffff","borough":"Queens","zone_name":"H3 882a100d5dfffff","demand_accounts":27,"fleet_present":5,"hub_distance_m":1592,"trips_total":33,"trips_peak_day":4,"trips_stddev_day":1.0431851677040116,"active_days":18,"mean_trip_km":10.974848484848486,"market_score_raw":0.045,"charging_pois":0,"parking_pois":0,"transit_pois":2,"competitor_pois":1,"total_pois":3,"demand_score":0.9166666666666666,"coverage_gap_score":0.6586677699627638,"market_score":0.255833,"saturation_score":0.16666666666666663,"final_score":66.51,"eligible":true}},
{"type":"Feature","geometry":{"type":"Polygon","coordinates":[[[-73.97134401074376,40.76529481351608],[-73.97772560510802,40.76424154885631],[-73.97969221725369,40.75978148900511],[-73.97527814530736,40.75637502535423],[-73.96889757735333,40.75742807025518],[-73.96693005504773,40.76188779853582],[-73.97134401074376,40.76529481351608]]]},"properties":{"zone_id":143,"h3_cell":"882a100d61fffff","borough":"Manhattan","zone_name":"H3 882a100d61fffff","demand_accounts":24,"fleet_present":8,"hub_distance_m":1867,"trips_total":19,"trips_peak_day":3,"trips_stddev_day":0.9944289260117533,"active_days":10,"mean_trip_km":14.43894736842105,"market_score_raw":0.932,"charging_pois":0,"parking_pois":0,"transit_pois":0,"competitor_pois":0,"total_pois":0,"demand_score":null,"coverage_gap_score":null,"market_score":null,"saturation_score":null,"final_score":null,"eligible":false}},
{"type":"Feature","geometry":{"type":"Polygon","coordinates":[[[-73.96889757735333,40.75742807025518],[-73.97527814530736,40.75637502535423],[-73.9772446567056,40.75191544407061],[-73.97283151005868,40.74850923922983],[-73.96645196820877,40.74956206444353],[-73.96448454701392,40.75402131415529],[-73.96889757735333,40.75742807025518]]]},"properties":{"zone_id":144,"h3_cell":"882a100d63fffff","borough":"Manhattan","zone_name":"H3 882a100d63fffff","demand_accounts":27,"fleet_present":9,"hub_distance_m":2417,"trips_total":30,"trips_peak_day":4,"trips_stddev_day":0.901590537370498,"active_days":19,"mean_trip_km":13.394999999999998,"market_score_raw":0.758,"charging_pois":0,"parking_pois":0,"transit_pois":0,"competitor_pois":0,"total_pois":0,"demand_score":null,"coverage_gap_score":null,"market_score":null,"saturation_score":null,"final_score":null,"eligible":false}},
{"type":"Feature","geometry":{"type":"Polygon","coordinates":[[[-73.98214060271079,40.767648271163246],[-73.98852232840895,40.766594382212226],[-73.99048803004561,40.76213399096606],[-73.98607291660541,40.758727820035865],[-73.97969221725369,40.75978148900511],[-73.97772560510802,40.76424154885631],[-73.98214060271079,40.767648271163246]]]},"properties":{"zone_id":145,"h3_cell":"882a100d65fffff","borough":"Manhattan","zone_name":"H3 882a100d65fffff","demand_accounts":29,"fleet_present":7,"hub_distance_m":2513,"trips_total":17,"trips_peak_day":3,"trips_stddev_day":0.8201995322647243,"active_days":11,"mean_trip_km":12.487058823529411,"market_score_raw":0.438,"charging_pois":0,"parking_pois":0,"transit_pois":0,"competitor_pois":3,"total_pois":4,"demand_score":null,"coverage_gap_score":null,"market_score":null,"saturation_score":null,"final_score":null,"eligible":false}},
{"type":"Feature","geometry":{"type":"Polygon","coordinates":[[[-73.97969221725369,40.75978148900511],[-73.98607291660541,40.758727820035865],[-73.98803851785813,40.75426790735591],[-73.98362433001691,40.750861995011526],[-73.9772446567056,40.75191544407061],[-73.97527814530736,40.75637502535423],[-73.97969221725369,40.75978148900511]]]},"properties":{"zone_id":146,"h3_cell":"882a100d67fffff","borough":"Manhattan","zone_name":"H3 882a100d67fffff","demand_accounts":26,"fleet_present":12,"hub_distance_m":2376,"trips_total":24,"trips_peak_day":2,"trips_stddev_day":0.4524139283588641,"active_days":19,"mean_trip_km":12.460416666666667,"market_score_raw":0.895,"charging_pois":2,"parking_pois":0,"transit_pois":0,"competitor_pois":1,"total_pois":3,"demand_score":null,"coverage_gap_score":null,"market_score":null,"saturation_score":null,"final_score":null,"eligible":false}},
{"type":"Feature","geometry":{"type":"Polygon","coordinates":[[[-73.96299389803004,40.77080788035516],[-73.96937638737819,40.769755020283164],[-73.97134401074376,40.76529481351608],[-73.96693005504773,40.76188779853582],[-73.96054859247963,40.76294043900045],[-73.95858005893992,40.76740031402271],[-73.96299389803004,40.77080788035516]]]},"properties":{"zone_id":147,"h3_cell":"882a100d69fffff","borough":"Manhattan","zone_name":"H3 882a100d69fffff","demand_accounts":26,"fleet_present":9,"hub_distance_m":933,"trips_total":36,"trips_peak_day":3,"trips_stddev_day":0.7837638128197258,"active_days":21,"mean_trip_km":12.793888888888887,"market_score_raw":0.797,"charging_pois":0,"parking_pois":1,"transit_pois":2,"competitor_pois":2,"total_pois":7,"demand_score":null,"coverage_gap_score":null,"market_score":null,"saturation_score":null,"final_score":null,"eligible":false}},
{"type":"Feature","geometry":{"type":"Polygon","coordinates":[[[-73.96054859247963,40.76294043900045],[-73.96693005504773,40.76188779853582],[-73.96889757735333,40.75742807025518],[-73.96448454701392,40.75402131415529],[-73.95810411091955,40.75507373508407],[-73.95613567880322,40.75953313161864],[-73.96054859247963,40.76294043900045]]]},"properties":{"zone_id":148,"h3_cell":"882a100d6bfffff","borough":"Manhattan","zone_name":"H3 882a100d6bfffff","demand_accounts":33,"fleet_present":8,"hub_distance_m":1567,"trips_total":16,"trips_peak_day":2,"trips_stddev_day":0.4385290096535146,"active_days":13,"mean_trip_km":14.096249999999998,"market_score_raw":0.015,"charging_pois":0,"parking_pois":0,"transit_pois":0,"competitor_pois":0,"total_pois":0,"demand_score":null,"coverage_gap_score":null,"market_score":null,"saturation_score":null,"final_score":null,"eligible":false}},
{"type":"Feature","geometry":{"type":"Polygon","coordinates":[[[-73.97379126878796,40.77316229398972],[-73.98017388986867,40.77210880949957],[-73.98214060271079,40.767648271163246],[-73.97772560510802,40.76424154885631],[-73.97134401074376,40.76529481351608],[-73.96937638737819,40.769755020283164],[-73.97379126878796,40.77316229398972]]]},"properties":{"zone_id":149,"h3_cell":"882a100d6dfffff","borough":"Manhattan","zone_name":"H3 882a100d6dfffff","demand_accounts":22,"fleet_present":11,"hub_distance_m":1654,"trips_total":35,"trips_peak_day":4,"trips_stddev_day":0.832970935693524,"active_days":24,"mean_trip_km":9.748,"market_score_raw":0.932,"charging_pois":0,"parking_pois":0,"transit_pois":2,"competitor_pois":1,"total_pois":3,"demand_score":null,"coverage_gap_score":null,"market_score":null,"saturation_score":null,"final_score":null,"eligible":false}},
{"type":"Feature","geometry":{"type":"Polygon","coordinates":[[[-73.92433013342384,40.711040274108456],[-73.93070517600681,40.709990195215056],[-73.93267390580984,40.70553400326202],[-73.92826850007971,40.70212822227503],[-73.92189448226031,40.703178082506184],[-73.91992484551959,40.707633942356736],[-73.92433013342384,40.711040274108456]]]},"properties":{"zone_id":150,"h3_cell":"882a100dc1fffff","borough":"Brooklyn","zone_name":"H3 882a100dc1fffff","demand_accounts":21,"fleet_present":3,"hub_distance_m":2843,"trips_total":29,"trips_peak_day":3,"trips_stddev_day":0.7717436331412897,"active_days":17,"mean_trip_km":10.539655172413795,"market_score_raw":0.555,"charging_pois":0,"parking_pois":0,"transit_pois":0,"competitor_pois":0,"total_pois":0,"demand_score":null,"coverage_gap_score":null,"market_score":null,"saturation_score":null,"final_score":null,"eligible":false}},
{"type":"Feature","geometry":{"type":"Polygon","coordinates":[[[-73.93511150435661,40.71339623645131],[-73.94148668003639,40.71234553489215],[-73.9434545025532,40.70788901101139],[-73.93904805678854,40.704483520587644],[-73.93267390580984,40.70553400326202],[-73.93070517600681,40.709990195215056],[-73.93511150435661,40.71339623645131]]]},"properties":{"zone_id":151,"h3_cell":"882a100dc5fffff","borough":"Brooklyn","zone_name":"H3 882a100dc5fffff","demand_accounts":18,"fleet_present":6,"hub_distance_m":1895,"trips_total":34,"trips_peak_day":4,"trips_stddev_day":0.8645047258706176,"active_days":20,"mean_trip_km":11.270294117647055,"market_score_raw":0.47,"charging_pois":0,"parking_pois":0,"transit_pois":0,"competitor_pois":0,"total_pois":0,"demand_score":0.9444444444444444,"coverage_gap_score":0.7840297889946214,"market_score":0.435,"saturation_score":0.0,"final_score":72.55,"eligible":true}},
{"type":"Feature","geometry":{"type":"Polygon","coordinates":[[[-73.93267390580984,40.70553400326202],[-73.93904805678854,40.704483520587644],[-73.9410157775295,40.70002747576969],[-73.9366102543282,40.69662224552487],[-73.93023712774507,40.6976725093857],[-73.92826850007971,40.70212822227503],[-73.93267390580984,40.70553400326202]]]},"properties":{"zone_id":152,"h3_cell":"882a100dc7fffff","borough":"Brooklyn","zone_name":"H3 882a100dc7fffff","demand_accounts":23,"fleet_present":6,"hub_distance_m":2461,"trips_total":20,"trips_peak_day":3,"trips_stddev_day":0.6172133998483676,"active_days":15,"mean_trip_km":11.767,"market_score_raw":0.47,"charging_pois":0,"parking_pois":0,"transit_pois":0,"competitor_pois":0,"total_pois":0,"demand_score":null,"coverage_gap_score":null,"market_score":null,"saturation_score":null,"final_score":null,"eligible":false}},
{"type":"Feature","geometry":{"type":"Polygon","coordinates":[[[-73.91598446007585,40.71654628777667],[-73.9223603942335,40.71549661294172],[-73.92433013342384,40.711040274108456],[-73.91992484551959,40.707633942356736],[-73.91354993649358,40.70868339868086],[-73.91157929035239,40.71313940523772],[-73.91598446007585,40.71654628777667]]]},"properties":{"zone_id":153,"h3_cell":"882a100dc9fffff","borough":"Queens","zone_name":"H3 882a100dc9fffff","demand_accounts":25,"fleet_present":7,"hub_distance_m":3232,"trips_total":29,"trips_peak_day":5,"trips_stddev_day":1.1048023512348795,"active_days":17,"mean_trip_km":11.954827586206896,"market_score_raw":0.689,"charging_pois":0,"parking_pois":0,"transit_pois":0,"competitor_pois":0,"total_pois":0,"demand_score":null,"coverage_gap_score":null,"market_score":null,"saturation_score":null,"final_score":null,"eligible":false}},
{"type":"Feature","geometry":{"type":"Polygon","coordinates":[[[-73.91354993649358,40.70868339868086],[-73.91992484551959,40.707633942356736],[-73.92189448226031,40.703178082506184],[-73.91749011667628,40.69977201122714],[-73.91111623247608,40.70082124911157],[-73.90914568914627,40.70527677668494],[-73.91354993649358,40.70868339868086]]]},"properties":{"zone_id":154,"h3_cell":"882a100dcbfffff","borough":"Brooklyn","zone_name":"H3 882a100dcbfffff","demand_accounts":17,"fleet_present":4,"hub_distance_m":3790,"trips_total":29,"trips_peak_day":4,"trips_stddev_day":0.985184366143778,"active_days":17,"mean_trip_km":10.790689655172415,"market_score_raw":0.689,"charging_pois":0,"parking_pois":0,"transit_pois":0,"competitor_pois":0,"total_pois":0,"demand_score":null,"coverage_gap_score":null,"market_score":null,"saturation_score":null,"final_score":null,"eligible":false}},
{"type":"Feature","geometry":{"type":"Polygon","coordinates":[[[-73.92676660481357,40.718903205013056],[-73.93314267246586,40.7178529073862],[-73.93511150435661,40.71339623645131],[-73.93070517600681,40.709990195215056],[-73.92433013342384,40.711040274108456],[-73.9223603942335,40.71549661294172],[-73.92676660481357,40.718903205013056]]]},"properties":{"zone_id":155,"h3_cell":"882a100dcdfffff","borough":"Brooklyn","zone_name":"H3 882a100dcdfffff","demand_accounts":15,"fleet_present":6,"hub_distance_m":2528,"trips_total":18,"trips_peak_day":2,"trips_stddev_day":0.5063696835418333,"active_days":13,"mean_trip_km":13.538888888888886,"market_score_raw":0.555,"charging_pois":0,"parking_pois":0,"transit_pois":0,"competitor_pois":0,"total_pois":0,"demand_score":null,"coverage_gap_score":null,"market_score":null,"saturation_score":null,"final_score":null,"eligible":false}},
{"type":"Feature","geometry":{"type":"Polygon","coordinates":[[[-73.95423627191848,40.71024310538683],[-73.9606106878353,40.70919137753711],[-73.96257659368274,40.70473466938643],[-73.95816899134621,40.701330020634494],[-73.9517955996994,40.70238152922569],[-73.94982878623108,40.70683790579746],[-73.95423627191848,40.71024310538683]]]},"properties":{"zone_id":156,"h3_cell":"882a100de1fffff","borough":"Brooklyn","zone_name":"H3 882a100de1fffff","demand_accounts":18,"fleet_present":9,"hub_distance_m":897,"trips_total":34,"trips_peak_day":5,"trips_stddev_day":1.118033988749895,"active_days":17,"mean_trip_km":11.903823529411765,"market_score_raw":0.867,"charging_pois":0,"parking_pois":0,"transit_pois":0,"competitor_pois":0,"total_pois":0,"demand_score":null,"coverage_gap_score":null,"market_score":null,"saturation_score":null,"final_score":null,"eligible":false}},
{"type":"Feature","geometry":{"type":"Polygon","coordinates":[[[-73.96501921333332,40.71259628602095],[-73.97139376102862,40.711543935439316],[-73.97335875890711,40.70708689588479],[-73.96895011717122,40.70368253828583],[-73.96257659368274,40.70473466938643],[-73.9606106878353,40.70919137753711],[-73.96501921333332,40.71259628602095]]]},"properties":{"zone_id":157,"h3_cell":"882a100de5fffff","borough":"Brooklyn","zone_name":"H3 882a100de5fffff","demand_accounts":26,"fleet_present":7,"hub_distance_m":933,"trips_total":32,"trips_peak_day":5,"trips_stddev_day":1.0600988273786194,"active_days":15,"mean_trip_km":11.28875,"market_score_raw":0.883,"charging_pois":0,"parking_pois":1,"transit_pois":0,"competitor_pois":1,"total_pois":2,"demand_score":null,"coverage_gap_score":null,"market_score":null,"saturation_score":null,"final_score":null,"eligible":false}},
{"type":"Feature","geometry":{"type":"Polygon","coordinates":[[[-73.96257659368274,40.70473466938643],[-73.96895011717122,40.70368253828583],[-73.97091501430954,40.6992259778728],[-73.96650729567824,40.695821879935444],[-73.96013479609144,40.696873791626444],[-73.95816899134621,40.701330020634494],[-73.96257659368274,40.70473466938643]]]},"properties":{"zone_id":158,"h3_cell":"882a100de7fffff","borough":"Brooklyn","zone_name":"H3 882a100de7fffff","demand_accounts":34,"fleet_present":7,"hub_distance_m":1566,"trips_total":12,"trips_peak_day":2,"trips_stddev_day":0.30151134457776363,"active_days":11,"mean_trip_km":12.767499999999998,"market_score_raw":0.883,"charging_pois":0,"parking_pois":0,"transit_pois":0,"competitor_pois":1,"total_pois":1,"demand_score":null,"coverage_gap_score":null,"market_score":null,"saturation_score":null,"final_score":null,"eligible":false}},
{"type":"Feature","geometry":{"type":"Polygon","coordinates":[[[-73.94589404872008,40.71575128534168],[-73.95226935703634,40.71469996102039],[-73.95423627191848,40.71024310538683],[-73.94982878623108,40.70683790579746],[-73.9434545025532,40.70788901101139],[-73.94148668003639,40.71234553489215],[-73.94589404872008,40.71575128534168]]]},"properties":{"zone_id":159,"h3_cell":"882a100de9fffff","borough":"Brooklyn","zone_name":"H3 882a100de9fffff","demand_accounts":18,"fleet_present":11,"hub_distance_m":948,"trips_total":19,"trips_peak_day":3,"trips_stddev_day":0.6333236937766509,"active_days":14,"mean_trip_km":11.884210526315789,"market_score_raw":0.054,"charging_pois":0,"parking_pois":0,"transit_pois":0,"competitor_pois":0,"total_pois":0,"demand_score":null,"coverage_gap_score":null,"market_score":null,"saturation_score":null,"final_score":null,"eligible":false}},
{"type":"Feature","geometry":{"type":"Polygon","coordinates":[[[-73.9434545025532,40.70788901101139],[-73.94982878623108,40.70683790579746],[-73.9517955996994,40.70238152922569],[-73.94738903687448,40.69897658959179],[-73.9410157775295,40.70002747576969],[-73.93904805678854,40.704483520587644],[-73.9434545025532,40.70788901101139]]]},"properties":{"zone_id":160,"h3_cell":"882a100debfffff","borough":"Brooklyn","zone_name":"H3 882a100debfffff","demand_accounts":23,"fleet_present":3,"hub_distance_m":1592,"trips_total":36,"trips_peak_day":4,"trips_stddev_day":0.9514531821875089,"active_days":20,"mean_trip_km":10.295000000000002,"market_score_raw":0.054,"charging_pois":0,"parking_pois":0,"transit_pois":0,"competitor_pois":0,"total_pois":0,"demand_score":1.0,"coverage_gap_score":0.6586677699627638,"market_score":0.227,"saturation_score":0.5,"final_score":73.17,"eligible":true}},
{"type":"Feature","geometry":{"type":"Polygon","coordinates":[[[-73.95667776594193,40.71810542041197],[-73.96305320643414,40.71705347323234],[-73.96501921333332,40.71259628602095],[-73.9606106878353,40.70919137753711],[-73.95423627191848,40.71024310538683],[-73.95226935703634,40.71469996102039],[-73.95667776594193,40.71810542041197]]]},"properties":{"zone_id":161,"h3_cell":"882a100dedfffff","borough":"Brooklyn","zone_name":"H3 882a100dedfffff","demand_accounts":29,"fleet_present":10,"hub_distance_m":0,"trips_total":19,"trips_peak_day":2,"trips_stddev_day":0.3321055820775357,"active_days":17,"mean_trip_km":14.481578947368423,"market_score_raw":0.867,"charging_pois":0,"parking_pois":0,"transit_pois":0,"competitor_pois":0,"total_pois":0,"demand_score":null,"coverage_gap_score":null,"market_score":null,"saturation_score":null,"final_score":null,"eligible":false}},
{"type":"Feature","geometry":{"type":"Polygon","coordinates":[[[-73.92469362741892,40.777117834907656],[-73.93107764019973,40.77606703390003],[-73.93304910704023,40.77160719843],[-73.92863747071466,40.76819849638185],[-73.92225448557949,40.76924907853162],[-73.92028210923684,40.77370858155751],[-73.92469362741892,40.777117834907656]]]},"properties":{"zone_id":162,"h3_cell":"882a100f23fffff","borough":"Queens","zone_name":"H3 882a100f23fffff","demand_accounts":30,"fleet_present":6,"hub_distance_m":2529,"trips_total":23,"trips_peak_day":3,"trips_stddev_day":0.6063390625908325,"active_days":17,"mean_trip_km":9.386521739130433,"market_score_raw":0.141,"charging_pois":0,"parking_pois":1,"transit_pois":0,"competitor_pois":0,"total_pois":1,"demand_score":null,"coverage_gap_score":null,"market_score":null,"saturation_score":null,"final_score":null,"eligible":false}},
{"type":"Feature","geometry":{"type":"Polygon","coordinates":[[[-73.91146104116827,40.76689004271212],[-73.91784389232348,40.765840084721034],[-73.91981616589032,40.76138106002223],[-73.9154064972035,40.757972325904944],[-73.90902467344941,40.759022065332566],[-73.9070514910936,40.763480757411095],[-73.91146104116827,40.76689004271212]]]},"properties":{"zone_id":163,"h3_cell":"882a100f31fffff","borough":"Queens","zone_name":"H3 882a100f31fffff","demand_accounts":25,"fleet_present":7,"hub_distance_m":2376,"trips_total":18,"trips_peak_day":3,"trips_stddev_day":0.5,"active_days":16,"mean_trip_km":10.363888888888889,"market_score_raw":0.749,"charging_pois":0,"parking_pois":0,"transit_pois":0,"competitor_pois":0,"total_pois":0,"demand_score":null,"coverage_gap_score":null,"market_score":null,"saturation_score":null,"final_score":null,"eligible":false}},
{"type":"Feature","geometry":{"type":"Polygon","coordinates":[[[-73.90902467344941,40.759022065332566],[-73.9154064972035,40.757972325904944],[-73.91737866794465,40.75351377961567],[-73.91296992347031,40.750105305345315],[-73.90658912681045,40.751154826280654],[-73.90461604764322,40.7556130399488],[-73.90902467344941,40.759022065332566]]]},"properties":{"zone_id":164,"h3_cell":"882a100f33fffff","borough":"Queens","zone_name":"H3 882a100f33fffff","demand_accounts":28,"fleet_present":5,"hub_distance_m":1567,"trips_total":25,"trips_peak_day":3,"trips_stddev_day":0.7174300539794393,"active_days":17,"mean_trip_km":13.6476,"market_score_raw":0.157,"charging_pois":0,"parking_pois":0,"transit_pois":1,"competitor_pois":0,"total_pois":1,"demand_score":null,"coverage_gap_score":null,"market_score":null,"saturation_score":null,"final_score":null,"eligible":false}},
{"type":"Feature","geometry":{"type":"Polygon","coordinates":[[[-73.92225448557949,40.76924907853162],[-73.92863747071466,40.76819849638185],[-73.93060883514258,40.76373913923792],[-73.92619812368679,40.76033069665902],[-73.91981616589032,40.76138106002223],[-73.91784389232348,40.765840084721034],[-73.92225448557949,40.76924907853162]]]},"properties":{"zone_id":165,"h3_cell":"882a100f35fffff","borough":"Queens","zone_name":"H3 882a100f35fffff","demand_accounts":24,"fleet_present":8,"hub_distance_m":2692,"trips_total":37,"trips_peak_day":3,"trips_stddev_day":0.7798878818298873,"active_days":22,"mean_trip_km":13.075135135135136,"market_score_raw":0.141,"charging_pois":0,"parking_pois":0,"transit_pois":1,"competitor_pois":1,"total_pois":3,"demand_score":null,"coverage_gap_score":null,"market_score":null,"saturation_score":null,"final_score":null,"eligible":false}},
{"type":"Feature","geometry":{"type":"Polygon","coordinates":[[[-73.91981616589032,40.76138106002223],[-73.92619812368679,40.76033069665902],[-73.92816938565204,40.755871817923655],[-73.9237595987092,40.75246363496773],[-73.91737866794465,40.75351377961567],[-73.9154064972035,40.757972325904944],[-73.91981616589032,40.76138106002223]]]},"properties":{"zone_id":166,"h3_cell":"882a100f37fffff","borough":"Queens","zone_name":"H3 882a100f37fffff","demand_accounts":13,"fleet_present":8,"hub_distance_m":1794,"trips_total":22,"trips_peak_day":3,"trips_stddev_day":0.6399404734221844,"active_days":15,"mean_trip_km":11.832727272727272,"market_score_raw":0.847,"charging_pois":0,"parking_pois":1,"transit_pois":3,"competitor_pois":0,"total_pois":4,"demand_score":null,"coverage_gap_score":null,"market_score":null,"saturation_score":null,"final_score":null,"eligible":false}},
{"type":"Feature","geometry":{"type":"Polygon","coordinates":[[[-73.9138982303735,40.77475875818331],[-73.92028210923684,40.77370858155751],[-73.92225448557949,40.76924907853162],[-73.91784389232348,40.765840084721034],[-73.91146104116827,40.76689004271212],[-73.90948775567357,40.771349213118654],[-73.9138982303735,40.77475875818331]]]},"properties":{"zone_id":167,"h3_cell":"882a100f3dfffff","borough":"Queens","zone_name":"H3 882a100f3dfffff","demand_accounts":22,"fleet_present":7,"hub_distance_m":3233,"trips_total":31,"trips_peak_day":4,"trips_stddev_day":0.9582800496696001,"active_days":18,"mean_trip_km":11.99741935483871,"market_score_raw":0.749,"charging_pois":1,"parking_pois":2,"transit_pois":1,"competitor_pois":0,"total_pois":4,"demand_score":null,"coverage_gap_score":null,"market_score":null,"saturation_score":null,"final_score":null,"eligible":false}},
{"type":"Feature","geometry":{"type":"Polygon","coordinates":[[[-74.0071771661464,40.75110466059423],[-74.01355620552742,40.750049559930545],[-74.01551887551045,40.745589611486515],[-74.01110341668911,40.742185094548326],[-74.00472540254478,40.743239974776706],[-74.00276182209714,40.747699592348475],[-74.0071771661464,40.75110466059423]]]},"properties":{"zone_id":168,"h3_cell":"882a107219fffff","borough":"Manhattan","zone_name":"H3 882a107219fffff","demand_accounts":33,"fleet_present":11,"hub_distance_m":2463,"trips_total":20,"trips_peak_day":3,"trips_stddev_day":0.646206172658864,"active_days":14,"mean_trip_km":13.7315,"market_score_raw":0.784,"charging_pois":0,"parking_pois":0,"transit_pois":0,"competitor_pois":0,"total_pois":0,"demand_score":null,"coverage_gap_score":null,"market_score":null,"saturation_score":null,"final_score":null,"eligible":false}},
{"type":"Feature","geometry":{"type":"Polygon","coordinates":[[[-74.00472540254478,40.743239974776706],[-74.01110341668911,40.742185094548326],[-74.01306598722455,40.73772562491323],[-74.00865145382899,40.734321366350215],[-74.0022744646159,40.735376026215015],[-74.00031098397913,40.73983516497632],[-74.00472540254478,40.743239974776706]]]},"properties":{"zone_id":169,"h3_cell":"882a10721bfffff","borough":"Manhattan","zone_name":"H3 882a10721bfffff","demand_accounts":27,"fleet_present":9,"hub_distance_m":1896,"trips_total":29,"trips_peak_day":4,"trips_stddev_day":0.8411910241920598,"active_days":19,"mean_trip_km":13.002758620689656,"market_score_raw":0.04,"charging_pois":2,"parking_pois":0,"transit_pois":0,"competitor_pois":1,"total_pois":3,"demand_score":null,"coverage_gap_score":null,"market_score":null,"saturation_score":null,"final_score":null,"eligible":false}},
{"type":"Feature","geometry":{"type":"Polygon","coordinates":[[[-74.00128501515357,40.76448557577045],[-74.00766597591395,40.76343065837675],[-74.00962975582917,40.758970083431144],[-74.00521348593928,40.75556475689414],[-73.99883355109118,40.75661945393188],[-73.99686886033284,40.761079697832514],[-74.00128501515357,40.76448557577045]]]},"properties":{"zone_id":170,"h3_cell":"882a107251fffff","borough":"Manhattan","zone_name":"H3 882a107251fffff","demand_accounts":28,"fleet_present":10,"hub_distance_m":3262,"trips_total":16,"trips_peak_day":3,"trips_stddev_day":0.6875516509523286,"active_days":11,"mean_trip_km":15.290000000000001,"market_score_raw":0.067,"charging_pois":0,"parking_pois":0,"transit_pois":0,"competitor_pois":1,"total_pois":2,"demand_score":null,"coverage_gap_score":null,"market_score":null,"saturation_score":null,"final_score":null,"eligible":false}},
{"type":"Feature","geometry":{"type":"Polygon","coordinates":[[[-73.99883355109118,40.75661945393188],[-74.00521348593928,40.75556475689414],[-74.0071771661464,40.75110466059423],[-74.00276182209714,40.747699592348475],[-73.99638291285558,40.748754069101984],[-73.99441832216888,40.75321383435542],[-73.99883355109118,40.75661945393188]]]},"properties":{"zone_id":171,"h3_cell":"882a107253fffff","borough":"Manhattan","zone_name":"H3 882a107253fffff","demand_accounts":26,"fleet_present":9,"hub_distance_m":2405,"trips_total":29,"trips_peak_day":3,"trips_stddev_day":0.6863327411532597,"active_days":20,"mean_trip_km":13.143793103448276,"market_score_raw":0.784,"charging_pois":0,"parking_pois":1,"transit_pois":1,"competitor_pois":0,"total_pois":3,"demand_score":null,"coverage_gap_score":null,"market_score":null,"saturation_score":null,"final_score":null,"eligible":false}},
{"type":"Feature","geometry":{"type":"Polygon","coordinates":[[[-73.99293836780527,40.770000811574135],[-73.9993202243749,40.76894629823585],[-74.00128501515357,40.76448557577045],[-73.99686886033284,40.761079697832514],[-73.99048803004561,40.76213399096606],[-73.98852232840895,40.766594382212226],[-73.99293836780527,40.770000811574135]]]},"properties":{"zone_id":172,"h3_cell":"882a107259fffff","borough":"Manhattan","zone_name":"H3 882a107259fffff","demand_accounts":22,"fleet_present":7,"hub_distance_m":3307,"trips_total":28,"trips_peak_day":3,"trips_stddev_day":0.696692268479466,"active_days":19,"mean_trip_km":13.665000000000001,"market_score_raw":0.386,"charging_pois":2,"parking_pois":0,"transit_pois":0,"competitor_pois":0,"total_pois":3,"demand_score":null,"coverage_gap_score":null,"market_score":null,"saturation_score":null,"final_score":null,"eligible":false}},
{"type":"Feature","geometry":{"type":"Polygon","coordinates":[[[-73.99048803004561,40.76213399096606],[-73.99686886033284,40.761079697832514],[-73.99883355109118,40.75661945393188],[-73.99441832216888,40.75321383435542],[-73.98803851785813,40.75426790735591],[-73.98607291660541,40.758727820035865],[-73.99048803004561,40.76213399096606]]]},"properties":{"zone_id":173,"h3_cell":"882a10725bfffff","borough":"Manhattan","zone_name":"H3 882a10725bfffff","demand_accounts":16,"fleet_present":5,"hub_distance_m":2692,"trips_total":25,"trips_peak_day":3,"trips_stddev_day":0.8139410298049854,"active_days":16,"mean_trip_km":13.3772,"market_score_raw":0.493,"charging_pois":0,"parking_pois":2,"transit_pois":0,"competitor_pois":1,"total_pois":4,"demand_score":null,"coverage_gap_score":null,"market_score":null,"saturation_score":null,"final_score":null,"eligible":false}},
{"type":"Feature","geometry":{"type":"Polygon","coordinates":[[[-74.01404758577743,40.708625583358184],[-74.02042073798236,40.707570558795176],[-74.02238099289096,40.70311282320175],[-74.017969004689,40.69971044267145],[-74.01159687576191,40.700765246784385],[-74.00963571187066,40.705222651847656],[-74.01404758577743,40.708625583358184]]]},"properties":{"zone_id":174,"h3_cell":"882a107281fffff","borough":"Manhattan","zone_name":"H3 882a107281fffff","demand_accounts":17,"fleet_present":9,"hub_distance_m":4224,"trips_total":25,"trips_peak_day":3,"trips_stddev_day":0.6978023391872253,"active_days":18,"mean_trip_km":14.378400000000001,"market_score_raw":0.191,"charging_pois":0,"parking_pois":0,"transit_pois":1,"competitor_pois":0,"total_pois":1,"demand_score":null,"coverage_gap_score":null,"market_score":null,"saturation_score":null,"final_score":null,"eligible":false}},
{"type":"Feature","geometry":{"type":"Polygon","coordinates":[[[-74.0057122762948,40.714138089736345],[-74.01208632254425,40.713083467639585],[-74.01404758577743,40.708625583358184],[-74.00963571187066,40.705222651847656],[-74.00326268926804,40.706277053645074],[-74.00130051703714,40.71073460722233],[-74.0057122762948,40.714138089736345]]]},"properties":{"zone_id":175,"h3_cell":"882a107289fffff","borough":"Manhattan","zone_name":"H3 882a107289fffff","demand_accounts":17,"fleet_present":6,"hub_distance_m":3312,"trips_total":26,"trips_peak_day":3,"trips_stddev_day":0.5712405705774795,"active_days":20,"mean_trip_km":10.738461538461538,"market_score_raw":0.156,"charging_pois":0,"parking_pois":0,"transit_pois":0,"competitor_pois":0,"total_pois":0,"demand_score":null,"coverage_gap_score":null,"market_score":null,"saturation_score":null,"final_score":null,"eligible":false}},
{"type":"Feature","geometry":{"type":"Polygon","coordinates":[[[-73.99982435195176,40.72751281514541],[-74.00620031653882,40.726458375572484],[-74.00816268802471,40.72199986380205],[-74.00375000441076,40.718596122451224],[-73.99737506414453,40.719650341803955],[-73.99541178328332,40.72410852269767],[-73.99982435195176,40.72751281514541]]]},"properties":{"zone_id":176,"h3_cell":"882a1072c1fffff","borough":"Manhattan","zone_name":"H3 882a1072c1fffff","demand_accounts":20,"fleet_present":10,"hub_distance_m":1866,"trips_total":34,"trips_peak_day":4,"trips_stddev_day":0.8645047258706176,"active_days":20,"mean_trip_km":12.730588235294118,"market_score_raw":0.493,"charging_pois":3,"parking_pois":0,"transit_pois":0,"competitor_pois":2,"total_pois":6,"demand_score":null,"coverage_gap_score":null,"market_score":null,"saturation_score":null,"final_score":null,"eligible":false}},
{"type":"Feature","geometry":{"type":"Polygon","coordinates":[[[-73.99737506414453,40.719650341803955],[-74.00375000441076,40.718596122451224],[-74.0057122762948,40.714138089736345],[-74.00130051703714,40.71073460722233],[-73.99492660078673,40.71178860642652],[-73.99296341989005,40.716246308263266],[-73.99737506414453,40.719650341803955]]]},"properties":{"zone_id":177,"h3_cell":"882a1072c3fffff","borough":"Manhattan","zone_name":"H3 882a1072c3fffff","demand_accounts":20,"fleet_present":9,"hub_distance_m":2417,"trips_total":13,"trips_peak_day":2,"trips_stddev_day":0.40451991747794525,"active_days":11,"mean_trip_km":15.417692307692308,"market_score_raw":0.895,"charging_pois":0,"parking_pois":1,"transit_pois":0,"competitor_pois":1,"total_pois":2,"demand_score":null,"coverage_gap_score":null,"market_score":null,"saturation_score":null,"final_score":null,"eligible":false}},
{"type":"Feature","geometry":{"type":"Polygon","coordinates":[[[-74.00816268802471,40.72199986380205],[-74.01453775822581,40.720945021334245],[-74.01649912074949,40.71648665791669],[-74.01208632254425,40.713083467639585],[-74.0057122762948,40.714138089736345],[-74.00375000441076,40.718596122451224],[-74.00816268802471,40.72199986380205]]]},"properties":{"zone_id":178,"h3_cell":"882a1072c7fffff","borough":"Manhattan","zone_name":"H3 882a1072c7fffff","demand_accounts":20,"fleet_present":9,"hub_distance_m":2799,"trips_total":23,"trips_peak_day":2,"trips_stddev_day":0.4608885989624768,"active_days":18,"mean_trip_km":14.34173913043478,"market_score_raw":0.954,"charging_pois":0,"parking_pois":3,"transit_pois":0,"competitor_pois":0,"total_pois":3,"demand_score":null,"coverage_gap_score":null,"market_score":null,"saturation_score":null,"final_score":null,"eligible":false}},
{"type":"Feature","geometry":{"type":"Polygon","coordinates":[[[-73.991484112232,40.733025511414105],[-73.99786097117715,40.73197147501401],[-73.99982435195176,40.72751281514541],[-73.99541178328332,40.72410852269767],[-73.98903594902826,40.72516233902854],[-73.98707165886354,40.72962066784637],[-73.991484112232,40.733025511414105]]]},"properties":{"zone_id":179,"h3_cell":"882a1072c9fffff","borough":"Manhattan","zone_name":"H3 882a1072c9fffff","demand_accounts":28,"fleet_present":7,"hub_distance_m":933,"trips_total":22,"trips_peak_day":2,"trips_stddev_day":0.5163977794943223,"active_days":15,"mean_trip_km":14.346818181818184,"market_score_raw":0.895,"charging_pois":0,"parking_pois":0,"transit_pois":0,"competitor_pois":1,"total_pois":1,"demand_score":null,"coverage_gap_score":null,"market_score":null,"saturation_score":null,"final_score":null,"eligible":false}},
{"type":"Feature","geometry":{"type":"Polygon","coordinates":[[[-73.98903594902826,40.72516233902854],[-73.99541178328332,40.72410852269767],[-73.99737506414453,40.719650341803955],[-73.99296341989005,40.716246308263266],[-73.98658861001985,40.71729990459653],[-73.98462442013124,40.72175775443809],[-73.98903594902826,40.72516233902854]]]},"properties":{"zone_id":180,"h3_cell":"882a1072cbfffff","borough":"Manhattan","zone_name":"H3 882a1072cbfffff","demand_accounts":20,"fleet_present":10,"hub_distance_m":1566,"trips_total":36,"trips_peak_day":4,"trips_stddev_day":0.787752092782872,"active_days":23,"mean_trip_km":12.454444444444446,"market_score_raw":0.895,"charging_pois":0,"parking_pois":0,"transit_pois":1,"competitor_pois":1,"total_pois":2,"demand_score":null,"coverage_gap_score":null,"market_score":null,"saturation_score":null,"final_score":null,"eligible":false}},
{"type":"Feature","geometry":{"type":"Polygon","coordinates":[[[-74.0022744646159,40.735376026215015],[-74.00865145382899,40.734321366350215],[-74.01061392486535,40.729862375606345],[-74.00620031653882,40.726458375572484],[-73.99982435195176,40.72751281514541],[-73.99786097117715,40.73197147501401],[-74.0022744646159,40.735376026215015]]]},"properties":{"zone_id":181,"h3_cell":"882a1072cdfffff","borough":"Manhattan","zone_name":"H3 882a1072cdfffff","demand_accounts":25,"fleet_present":10,"hub_distance_m":1653,"trips_total":21,"trips_peak_day":3,"trips_stddev_day":0.6642111641550714,"active_days":17,"mean_trip_km":14.402857142857142,"market_score_raw":0.04,"charging_pois":1,"parking_pois":0,"transit_pois":0,"competitor_pois":0,"total_pois":2,"demand_score":null,"coverage_gap_score":null,"market_score":null,"saturation_score":null,"final_score":null,"eligible":false}},
{"type":"Feature","geometry":{"type":"Polygon","coordinates":[[[-73.98414209479957,40.709438208353774],[-73.99051588058998,40.70838483194654],[-73.99247896147108,40.70392760924878],[-73.98806916497608,40.70052409398307],[-73.98169640296042,40.701577250535834],[-73.97973241377683,40.7060341421788],[-73.98414209479957,40.709438208353774]]]},"properties":{"zone_id":182,"h3_cell":"882a1072d1fffff","borough":"Brooklyn","zone_name":"H3 882a1072d1fffff","demand_accounts":18,"fleet_present":8,"hub_distance_m":2511,"trips_total":34,"trips_peak_day":4,"trips_stddev_day":0.8646496675642961,"active_days":21,"mean_trip_km":13.571764705882355,"market_score_raw":0.111,"charging_pois":0,"parking_pois":1,"transit_pois":0,"competitor_pois":0,"total_pois":1,"demand_score":null,"coverage_gap_score":null,"market_score":null,"saturation_score":null,"final_score":null,"eligible":false}},
{"type":"Feature","geometry":{"type":"Polygon","coordinates":[[[-73.98658861001985,40.71729990459653],[-73.99296341989005,40.716246308263266],[-73.99492660078673,40.71178860642652],[-73.99051588058998,40.70838483194654],[-73.98414209479957,40.709438208353774],[-73.98217800523803,40.713895579137024],[-73.98658861001985,40.71729990459653]]]},"properties":{"zone_id":183,"h3_cell":"882a1072ddfffff","borough":"Manhattan","zone_name":"H3 882a1072ddfffff","demand_accounts":19,"fleet_present":7,"hub_distance_m":2375,"trips_total":13,"trips_peak_day":2,"trips_stddev_day":0.28867513459481287,"active_days":12,"mean_trip_km":13.359999999999998,"market_score_raw":0.111,"charging_pois":1,"parking_pois":0,"transit_pois":0,"competitor_pois":0,"total_pois":1,"demand_score":null,"coverage_gap_score":null,"market_score":null,"saturation_score":null,"final_score":null,"eligible":false}}]}
