{"type": "FeatureCollection", "features": [{"type": "Feature", "properties": {"borough": "Brooklyn"}, "geometry": {"type": "MultiPolygon", "coordinates": [[[[-73.95460353380129, 40.7391278483743], [-73.95415627885318, 40.73910691485324], [-73.953815514917, 40.73905312586367], [-73.95323299037669, 40.73899268364096], [-73.9519879435446, 40.73874762047442], [-73.9519275902918, 40.738695897321556], [-73.95188004444081, 40.738695264821], [-73.95187806586495, 40.738713985906735], [-73.95038748197699, 40.738284837125846], [-73.94812291657061, 40.73739715460861], [-73.94809172682271, 40.73746770486489], [-73.94716178589232, 40.7371549317599], [-73.94683977748869, 40.73699914899082], [-73.94661589520466, 40.7369245549605], [-73.9465805064899, 40.73694426897732], [-73.94652352854786, 40.736926853958344], [-73.94644229140863, 40.73678062626333], [-73.94719983367159, 40.73535517761172], [-73.94706532915387, 40.7344019928194], [-73.94659806707352, 40.73444222434747], [-73.94673908072966, 40.73528269384118], [-73.9462474829692, 40.73616616522714], [-73.94617195881511, 40.73620288877441], [-73.9458731056289, 40.73610183125833], [-73.94557048457217, 40.73661230391058], [-73.94551998044129, 40.736590662918395], [-73.94554528485209, 40.736537832854765], [-73.94541584986413, 40.73650174400834], [-73.94540003127122, 40.736537764078925], [-73.94535897179904, 40.73654975457608], [-73.94520743701801, 40.736508850516294], [-73.94522012115169, 40.73644400571906], [-73.94507806672308, 40.73639349768501], [-73.94505908334067, 40.73643912518255], [-73.94503381424784, 40.73644872026418], [-73.94499908889487, 40.73643669371279], [-73.94525492279563, 40.73589278900394], [-73.94518507181319, 40.735479152678], [-73.94503299031923, 40.73542861568351], [-73.94496124483584, 40.735634249151005], [-73.94477272080763, 40.73598576127731], [-73.94454903299523, 40.73622528833388], [-73.94451617245132, 40.73623594410972], [-73.94454492119894, 40.73625958639201], [-73.944515421174, 40.736284390892955], [-73.94439089670874, 40.736258737644285], [-73.94321347652946, 40.73579053001632], [-73.94239443542429, 40.735425749947694], [-73.94173819589855, 40.734950717917755], [-73.94179189161022, 40.73491289664763], [-73.94176306503522, 40.73485938231862], [-73.94160658196863, 40.73468770216404], [-73.94154566832448, 40.73473433593498], [-73.94114746701952, 40.734152927537735], [-73.94099746599917, 40.73379048555597], [-73.94115615809413, 40.733748909610036], [-73.94103843274782, 40.73348826020316], [-73.94092914681445, 40.73351139187737], [-73.94081817225897, 40.73324890893785], [-73.94072562054994, 40.73329118540725], [-73.94056868930251, 40.73305849425783], [-73.94068491601338, 40.733017077124714], [-73.94036658952952, 40.73221258691498], [-73.93981322625451, 40.73115268891223], [-73.93974607754154, 40.731065475472256], [-73.93891503477069, 40.73038379473341], [-73.93856120412507, 40.7301336432189], [-73.93810334960666, 40.72972851952151], [-73.93808900912056, 40.729746846260646], [-73.93711874507949, 40.72918993206516], [-73.9369312479987, 40.729108091265736], [-73.93655894374993, 40.72901782626717], [-73.93492926391922, 40.728543915250576], [-73.93420948564123, 40.72844388032264], [-73.93422206741177, 40.72839051737071], [-73.93349948194378, 40.72830413920166], [-73.93348271999368, 40.72828156334355], [-73.93301658610117, 40.72821034223379], [-73.93291116235261, 40.72823331594184], [-73.93240789866186, 40.72814592383752], [-73.93234598849824, 40.728182393884865], [-73.93200420453815, 40.72814508289363], [-73.93168317826694, 40.72803172659972], [-73.93166858749694, 40.72803828230707], [-73.93080479131761, 40.72784883926188], [-73.93032635559956, 40.72779514224909], [-73.92966042198182, 40.727533219679096], [-73.92960207562369, 40.727574315843476], [-73.92963029971219, 40.72758681014809], [-73.92961806788247, 40.727603242735626], [-73.9295802069088, 40.727612820708856], [-73.92924333948392, 40.72739794231883], [-73.92926898893543, 40.72736521532133], [-73.92889748733168, 40.727027763994194], [-73.92849418540162, 40.72661460330804], [-73.92805429534305, 40.72607234016277], [-73.9279391262521, 40.72588372904592], [-73.92787172405026, 40.72585405119786], [-73.92779650104131, 40.7249256687138], [-73.9272027596346, 40.723652947186324], [-73.92561470516623, 40.72006166221262], [-73.92481798943699, 40.72026513747549], [-73.92481537158015, 40.72022555855099], [-73.92470891655732, 40.7199988755665], [-73.92474503108116, 40.71998524724642], [-73.92460885647323, 40.71978969283505], [-73.92451999415132, 40.71961273042438], [-73.92453854985799, 40.719342580204675], [-73.92457948088894, 40.71916252333494], [-73.92470227807114, 40.71868830410081], [-73.92481555677264, 40.7184868359062], [-73.9248641350911, 40.718440445413684], [-73.92499204426606, 40.71838478776138], [-73.92508677520773, 40.71838421920441], [-73.92615790234233, 40.71809946763342], [-73.92638366600805, 40.71808480752637], [-73.92837930101501, 40.71757836729027], [-73.92842419720877, 40.71758530268093], [-73.928470830849, 40.71762628680039], [-73.92859170789374, 40.71763506050529], [-73.92866774684481, 40.71765931310408], [-73.92878963057186, 40.717732852122516], [-73.92887965180016, 40.71772031862372], [-73.92912432770675, 40.71752729272471], [-73.9291453078458, 40.717453139464126], [-73.9291853904298, 40.71741165011884], [-73.92956856905481, 40.71722153606533], [-73.9296487614611, 40.717145942169644], [-73.92970539915328, 40.71704927938932], [-73.92969847812826, 40.71699103024053], [-73.92949561546536, 40.71657342087147], [-73.9295016940007, 40.71649978980551], [-73.92931999766083, 40.71611200883277], [-73.92931651965579, 40.71604383780609], [-73.9293448342123, 40.715938917983266], [-73.92940052893972, 40.71581651876642], [-73.92947356921461, 40.715721452621324], [-73.92955920385597, 40.715679649111166], [-73.93149304610917, 40.715208480572755], [-73.93165926717444, 40.71520855239446], [-73.93179267229117, 40.71518297509136], [-73.93208047053639, 40.71505649754115], [-73.93219753146334, 40.714972107490546], [-73.93223037717559, 40.71492154524647], [-73.93223397469474, 40.71486442837501], [-73.9321499860121, 40.71468746473039], [-73.93213686921227, 40.71467904647495], [-73.9317535718227, 40.71474167550589], [-73.93159048356527, 40.71439949248135], [-73.93155662007553, 40.71439338442319], [-73.93154203825681, 40.71435960700487], [-73.93142604100935, 40.71438234308075], [-73.9313130786729, 40.71414402489602], [-73.93143603021136, 40.714126182518044], [-73.9312406705949, 40.71372481088488], [-73.93145301732991, 40.713438844966355], [-73.93159144262145, 40.71338481591799], [-73.93164527391666, 40.713342793758315], [-73.93257765480118, 40.71308911165596], [-73.93263905242465, 40.71305258616951], [-73.93264693956291, 40.713000730789005], [-73.9320326298051, 40.71159022307447], [-73.93338484615303, 40.71123372774584], [-73.93328349320298, 40.71097870695552], [-73.9319010192086, 40.71133847142838], [-73.93093227547737, 40.70916531125431], [-73.93078002706979, 40.70910330128782], [-73.93075653104785, 40.70897298273742], [-73.93067043926418, 40.70887107444173], [-73.93054296635056, 40.70876887089769], [-73.93050100083198, 40.70868122503974], [-73.9303609456584, 40.70871773803284], [-73.93038021735106, 40.708802847762975], [-73.93025038849032, 40.70892791342272], [-73.93154613746866, 40.71185535175125], [-73.93085966173925, 40.712064941156946], [-73.93080159026492, 40.712098890797826], [-73.93077894737053, 40.71216042795565], [-73.9308125804357, 40.71220580594978], [-73.93085528765467, 40.712220663782226], [-73.93161032734892, 40.71203802268057], [-73.93184868877454, 40.712564774183434], [-73.93182187286673, 40.71267946522635], [-73.93173436851777, 40.71274929223821], [-73.93052713207372, 40.71306156140727], [-73.93042294313072, 40.71317255867123], [-73.93077166547397, 40.713929468085254], [-73.93105231901666, 40.714610224426096], [-73.9308519013403, 40.71490298559298], [-73.92991665528317, 40.71514981699961], [-73.92990279901284, 40.71512496347713], [-73.92931412285779, 40.71527983418714], [-73.92925366567536, 40.71532880253998], [-73.92843881814593, 40.71553094957593], [-73.9289024285406, 40.71657281231809], [-73.92890601265017, 40.716618957312264], [-73.92885446710952, 40.71672257421478], [-73.92874531987815, 40.71682512834856], [-73.92861009191243, 40.71691233129577], [-73.92827145107027, 40.71708972883236], [-73.92595163943956, 40.71769107057007], [-73.92594091108798, 40.717674152162395], [-73.92472906134894, 40.717944050687954], [-73.92460339476078, 40.717953306073525], [-73.92452081662722, 40.717924481395315], [-73.9241199951014, 40.71767936007592], [-73.92394037469346, 40.717520813855366], [-73.92366000842217, 40.7173355194154], [-73.92358786233977, 40.717271580637], [-73.92341861434724, 40.717069015738886], [-73.92335355684713, 40.71696589948925], [-73.92323157113603, 40.71669943915774], [-73.92316776085316, 40.71647891488369], [-73.92311718168406, 40.7164761884567], [-73.92305500014334, 40.716342664793544], [-73.92331244916078, 40.71622884989698], [-73.92338579746858, 40.716212788670816], [-73.923471440708, 40.716146666624006], [-73.92361145155549, 40.716103508171415], [-73.92359001003155, 40.71602814869508], [-73.92431329961575, 40.71584705657693], [-73.92483287559027, 40.715282912041516], [-73.924885535076, 40.71526718765272], [-73.92476629284414, 40.715032049512025], [-73.92476155049347, 40.71497597144855], [-73.92469009338389, 40.714880957033145], [-73.92461501505854, 40.71482708365438], [-73.92455568744018, 40.71475365373297], [-73.92443153174074, 40.7143647761765], [-73.9244191096702, 40.71434961252505], [-73.92439028050508, 40.714349179132554], [-73.92434751117979, 40.714307053009584], [-73.92433589757124, 40.71412259346656], [-73.92405909736993, 40.71411156014769], [-73.92404011334023, 40.71400831262909], [-73.923139363493, 40.713394728593684], [-73.92223466477621, 40.71285595436308], [-73.92154601695684, 40.711043283535005], [-73.92122073526369, 40.71079055855663], [-73.92074853115804, 40.710533648958915], [-73.92189184698694, 40.70939609671098], [-73.91180710069368, 40.703434952529385], [-73.91290404121894, 40.702361891799406], [-73.91067882737353, 40.70104596956685], [-73.91175230737232, 40.70000000000001], [-73.97078617829361, 40.70000000000001], [-73.97080524432843, 40.70009750034251], [-73.97254221267232, 40.701636442797025], [-73.97250810272986, 40.70166238646312], [-73.9733245610394, 40.70241265601087], [-73.97283512788735, 40.70272874074414], [-73.96982556559531, 40.700245070368176], [-73.96948655218107, 40.70051906075575], [-73.97283889974975, 40.70334642809948], [-73.97266938433755, 40.703501380431305], [-73.96924539207357, 40.70136474188369], [-73.9689347481843, 40.70161586820744], [-73.96898517428966, 40.70174708878672], [-73.9723124627611, 40.703844539538764], [-73.97215798824992, 40.70397020762626], [-73.97145657354827, 40.70350871592477], [-73.97110342298832, 40.70345973583992], [-73.97093307886317, 40.70362477255154], [-73.97101963118536, 40.70381561318393], [-73.97343036787649, 40.70530141071212], [-73.9746556960806, 40.70607426249181], [-73.97439083502323, 40.70632577414488], [-73.97339230539548, 40.705733211641444], [-73.97254880057797, 40.70620449050653], [-73.97329876359848, 40.706697713774695], [-73.97462966604422, 40.70768106076842], [-73.97423616968535, 40.70802438612255], [-73.97310627091186, 40.70713556922066], [-73.97122492912246, 40.705789899911196], [-73.97109655489108, 40.705850056558404], [-73.97100438685831, 40.70682824094674], [-73.97105692306182, 40.706946433816846], [-73.97275756998357, 40.708831279050386], [-73.97232032139803, 40.70908288380697], [-73.97066975742996, 40.70725970882165], [-73.97054062182244, 40.707316076354026], [-73.97026218532285, 40.706887504284225], [-73.97048881848579, 40.70540066562205], [-73.9701689450992, 40.70536185340743], [-73.970180755728, 40.704929270567035], [-73.96762114779925, 40.70334850569708], [-73.96751516691066, 40.703437357380864], [-73.9674767449303, 40.703949870956436], [-73.96929693837713, 40.70508833122986], [-73.96923632685235, 40.70599431300112], [-73.96929296348496, 40.707093331095756], [-73.9698486482356, 40.708003041185286], [-73.96994196698674, 40.709302053354136], [-73.96961485767477, 40.71014774918208], [-73.96960541330354, 40.71027084387491], [-73.96968584951003, 40.710321731483816], [-73.97002326327953, 40.71039119200587], [-73.97005722181427, 40.71041803631304], [-73.97006935142757, 40.71045413575362], [-73.97004705348371, 40.71050037216791], [-73.969991243381, 40.71052531442217], [-73.9696618647883, 40.710499724137215], [-73.96963106061418, 40.71065694598792], [-73.96977460856866, 40.71068625392137], [-73.96978568143778, 40.710727243667904], [-73.96976877618125, 40.710788321571556], [-73.96969230826447, 40.71084690292184], [-73.96941809313222, 40.710938127262274], [-73.96937430020651, 40.71102066606319], [-73.96990773093626, 40.711268121839005], [-73.96931038510043, 40.7111078528816], [-73.96923492997324, 40.711240541941166], [-73.96929101618221, 40.711270199815274], [-73.96923352739985, 40.71143313228658], [-73.96914483225518, 40.71145699505015], [-73.96886591557372, 40.71223189865541], [-73.96881612079872, 40.71225194770671], [-73.96886537577407, 40.71227235962686], [-73.96883817664548, 40.71238964192912], [-73.96894079301877, 40.71241877244813], [-73.96887248523575, 40.71257874343655], [-73.96878386342081, 40.71275652670846], [-73.96872243615427, 40.71273764582788], [-73.9686660580002, 40.71285719349188], [-73.96849847488288, 40.7128069037367], [-73.96846973347043, 40.712824709346336], [-73.96844231934433, 40.71293843489031], [-73.96855971786002, 40.71298731067343], [-73.96850672619524, 40.713105471889605], [-73.96884924904168, 40.71321254596066], [-73.96800830687327, 40.71512072380623], [-73.9673639163342, 40.71648367905523], [-73.96724034462171, 40.71658788605879], [-73.96725983400415, 40.71667097505573], [-73.96710504006269, 40.716908393254585], [-73.96725113740355, 40.716986666609294], [-73.96655195195892, 40.71803845157975], [-73.96652746661586, 40.71803189768139], [-73.96631330191009, 40.71831654141009], [-73.96619833874271, 40.71825471225199], [-73.96552429693033, 40.71891934200116], [-73.96511950416225, 40.719226893997565], [-73.96527782446579, 40.71935997206043], [-73.96535088611866, 40.71946623335332], [-73.96539429900726, 40.71958151803574], [-73.96540628108174, 40.71970109421694], [-73.96537102933335, 40.71989685980962], [-73.96527752084597, 40.720118263637346], [-73.96517766196057, 40.7202536454423], [-73.96503278328099, 40.72037706947511], [-73.96447946289155, 40.72003618825597], [-73.96433359670719, 40.7202083196804], [-73.96444754919652, 40.72027697390622], [-73.96433475464111, 40.72038653891141], [-73.96439735661679, 40.72044183392412], [-73.9640659124426, 40.72079991096256], [-73.96399793724463, 40.72093843807292], [-73.96353855348461, 40.721573378514314], [-73.96343759486868, 40.721559095162284], [-73.96296566336959, 40.72203447712286], [-73.9627566542267, 40.722399015126264], [-73.96223504964324, 40.7235702592654], [-73.96200744799044, 40.72399190110537], [-73.96189426712185, 40.724106702101246], [-73.96165984301349, 40.72486045446323], [-73.96211461566836, 40.725148063399075], [-73.9619023964313, 40.72532050081128], [-73.96153679358694, 40.72510891885226], [-73.96141263577844, 40.725177219492835], [-73.96116366368389, 40.725264606333695], [-73.96043230240612, 40.725114108660705], [-73.9603665103636, 40.72504730938607], [-73.9583307822691, 40.72441170076633], [-73.95814292507116, 40.724404283900235], [-73.95803916741664, 40.72442744087881], [-73.95794183489497, 40.72464920270007], [-73.95795096213239, 40.72503643916857], [-73.95835177078861, 40.72519805730189], [-73.95842611843923, 40.72540053583232], [-73.96012497133243, 40.72531963663707], [-73.96028544944211, 40.725948122413136], [-73.96106343511704, 40.72584489918567], [-73.96161518835936, 40.72586556307424], [-73.96165280828099, 40.726203926231264], [-73.96161716963762, 40.726661421991196], [-73.96149920105312, 40.72675109112543], [-73.96141826820894, 40.72735617970487], [-73.96114159312467, 40.728103725404736], [-73.9610168813666, 40.728704440101914], [-73.9611509325364, 40.729536204770845], [-73.96128261942144, 40.73006102501025], [-73.96128450722306, 40.730159062204145], [-73.96142843697933, 40.73094639261039], [-73.96175495708391, 40.73166467816548], [-73.96226340423296, 40.7329155516237], [-73.96234062194122, 40.73338922663306], [-73.9623083769676, 40.733532324263976], [-73.96233177722954, 40.73362302407045], [-73.96232850324637, 40.73375434133019], [-73.96228520236927, 40.734047695876846], [-73.96218552877318, 40.73424901663297], [-73.9620903444991, 40.734507997873784], [-73.96190964676353, 40.734750806246815], [-73.96176208458853, 40.73489161477933], [-73.96157494306746, 40.735179614928796], [-73.96046748142291, 40.7363996453531], [-73.96009521419671, 40.736758548733455], [-73.95982931147842, 40.73706090063334], [-73.9597058590907, 40.7371368520151], [-73.9595831145233, 40.73725416310589], [-73.95919107556793, 40.737539116286705], [-73.95902797086994, 40.737637357848804], [-73.95883332045649, 40.7377854672206], [-73.95867800305567, 40.73786649270307], [-73.95831235513265, 40.738137026471044], [-73.95771673677041, 40.738493320247585], [-73.95693002865117, 40.73888707307171], [-73.95564004576103, 40.73904431671021], [-73.9555306715092, 40.73903269326244], [-73.95519660913389, 40.739084541693806], [-73.95476314020387, 40.739123535556445], [-73.95460353380129, 40.7391278483743]]], [[[-73.99717584355882, 40.70010599196653], [-73.99724462871697, 40.70014140989725], [-73.99513826840686, 40.70297411472301], [-73.99504592748325, 40.70313183979974], [-73.99480038274864, 40.70329195864474], [-73.99466290343611, 40.70343060855935], [-73.9949954253394, 40.703650563714426], [-73.99476934191567, 40.70395289495375], [-73.99471424235152, 40.70399668906109], [-73.99479231460049, 40.70406840563392], [-73.9947923129999, 40.70408889470734], [-73.994698074708, 40.704164700797484], [-73.99477614353458, 40.704245861052534], [-73.99456978950887, 40.70437626401665], [-73.99386341031877, 40.704556007433204], [-73.99380687248414, 40.70453961321432], [-73.99377457207805, 40.70444945740894], [-73.99358606975359, 40.70450911821835], [-73.99362643916733, 40.70459524465756], [-73.99350881403609, 40.70462350527417], [-73.99269135574995, 40.70462984994554], [-73.99251210682047, 40.70469411255774], [-73.99212703535068, 40.70468964203369], [-73.99212100639087, 40.70439620157808], [-73.99186159189317, 40.70408664210455], [-73.9914179478271, 40.70400408902084], [-73.99094755350794, 40.704032442139386], [-73.99071473114805, 40.70435137904078], [-73.99054617998547, 40.70441616750193], [-73.99030768493817, 40.704839880602165], [-73.99022721196013, 40.70493404448724], [-73.99009111393444, 40.704943463289254], [-73.98949358971352, 40.70480903812381], [-73.98934734717507, 40.70472969170282], [-73.98920046436159, 40.70472389698898], [-73.98898897757802, 40.70469035678176], [-73.98869723304767, 40.704564578777], [-73.98830332208541, 40.70454046895521], [-73.98828999111286, 40.70507065899779], [-73.98795676491503, 40.705134217412656], [-73.98726969301148, 40.70517572069439], [-73.98692348455644, 40.70516246248601], [-73.9868232284912, 40.705146152117095], [-73.98673433062268, 40.705107289875265], [-73.9866653096233, 40.70504959976104], [-73.9866227794052, 40.70497860995694], [-73.98652973012088, 40.70497909917395], [-73.98642911608677, 40.70506917942819], [-73.98643429826667, 40.705348607419744], [-73.98474329943127, 40.705542907267116], [-73.98343806221908, 40.705644094847976], [-73.98340650330286, 40.70546637066061], [-73.98336819878104, 40.705461065076655], [-73.98326398738244, 40.705485066660806], [-73.98308639158824, 40.70547709070241], [-73.98308986565951, 40.70551154182603], [-73.98274161885993, 40.70557244153285], [-73.9827485936769, 40.70553269174225], [-73.98245956872238, 40.70550879722553], [-73.98245898641562, 40.70554241447], [-73.98232944150563, 40.7055520336641], [-73.98092510311987, 40.70536925520069], [-73.98090864629846, 40.705907943812086], [-73.98074070494954, 40.705855159870545], [-73.98022004252581, 40.705851076223716], [-73.98023715381456, 40.70576328356001], [-73.97955918553285, 40.70574361525014], [-73.97955579999753, 40.70577021477277], [-73.9793286532596, 40.70576543335514], [-73.97927983185266, 40.705789481974485], [-73.97927336342906, 40.70591713530242], [-73.97921391769955, 40.70590664023344], [-73.9791827080093, 40.70596521497335], [-73.97905049904112, 40.70596696359181], [-73.97905767012278, 40.70595288910078], [-73.97893110285543, 40.70592490572793], [-73.97906084911834, 40.70594602894106], [-73.9792433349359, 40.70555119637771], [-73.97896355081068, 40.705502196504476], [-73.97886517755401, 40.70586795569788], [-73.97881909040053, 40.705862467582065], [-73.97892765823747, 40.70549619916924], [-73.97873829486635, 40.70546306467228], [-73.97863906658571, 40.705830648221955], [-73.97860162154011, 40.70582296852492], [-73.97869698190465, 40.705456260458234], [-73.97868440584472, 40.70545417710807], [-73.97864529228853, 40.705591021595815], [-73.97846557848965, 40.70556222186459], [-73.97843202250115, 40.70567863537457], [-73.97845692665041, 40.70568467084716], [-73.97844899155686, 40.70571654541765], [-73.97842182374887, 40.70571309395997], [-73.97838895552225, 40.705830254587475], [-73.97842178331267, 40.70583801423629], [-73.9784127146256, 40.70587075035064], [-73.97838101898186, 40.70586643677725], [-73.97839230543768, 40.705970682310976], [-73.97839909439145, 40.705982745202576], [-73.97885303360727, 40.70606553478217], [-73.97839229957337, 40.70598877423338], [-73.97838776526434, 40.70600600388115], [-73.97834474852871, 40.705999964987754], [-73.97835155258495, 40.70596550577205], [-73.9783741922705, 40.70596809446856], [-73.97836290650389, 40.705863848933134], [-73.97834139805158, 40.70585953726329], [-73.97834706969716, 40.705825077834135], [-73.97837423698812, 40.70583025182318], [-73.97840597500247, 40.70571050654691], [-73.97838559905207, 40.70570533367322], [-73.97839127010326, 40.705672596922525], [-73.97841617508323, 40.705676048465726], [-73.97845405328272, 40.70556037523419], [-73.97842683362268, 40.70555680850924], [-73.9785931362013, 40.70497858414301], [-73.97853198820691, 40.70487652342981], [-73.97844190715938, 40.704871395843334], [-73.97816199691664, 40.704528427576975], [-73.97817688845528, 40.70446844361977], [-73.97802067326656, 40.70429096645633], [-73.97735570894407, 40.70417808977408], [-73.97733878404613, 40.7042295507857], [-73.97721196339239, 40.70421392662441], [-73.97751215494964, 40.70319675266363], [-73.9773608383371, 40.703139520510895], [-73.97729538355684, 40.70318930808768], [-73.97713562625398, 40.703005581402685], [-73.97623864768488, 40.704775644190875], [-73.97596096344817, 40.70471550694327], [-73.97692749188352, 40.702797820400555], [-73.97664059239017, 40.702496766095074], [-73.97615937292022, 40.702171280357035], [-73.97553456489742, 40.703042808805854], [-73.97532987393983, 40.70295192433844], [-73.97594746888186, 40.702011493721955], [-73.97600587845464, 40.70194613327937], [-73.9758959808124, 40.701900470880545], [-73.97581417882664, 40.70189518264471], [-73.97559301790535, 40.70181378876856], [-73.97561086931896, 40.70179681450754], [-73.97550083176424, 40.701758308965815], [-73.97540348224568, 40.7019111475677], [-73.9745502338837, 40.70159034380239], [-73.97563649393803, 40.7], [-73.99718120546997, 40.70000000000001], [-73.99717584355882, 40.70010599196653]]], [[[-73.97431850171851, 40.701194295008996], [-73.9741151399254, 40.70130527091706], [-73.97388878848535, 40.701085194393244], [-73.97376210936595, 40.70108068054644], [-73.97354417557615, 40.70089229252972], [-73.9735559707605, 40.700867631881444], [-73.97292642848618, 40.70029455342787], [-73.97257311967203, 40.700082056121104], [-73.97239201397458, 40.700166322752416], [-73.97262103106205, 40.70046599557639], [-73.97326855015832, 40.70105091097229], [-73.97333000146529, 40.701050925227776], [-73.97351970654739, 40.70122566022012], [-73.97353593223345, 40.70132745298928], [-73.973757007132, 40.701534138881996], [-73.97318676670898, 40.70166980367387], [-73.97288404771976, 40.701416795976186], [-73.97284574196068, 40.7014347234147], [-73.97123067134883, 40.70000000000001], [-73.97509936812042, 40.7], [-73.97431850171851, 40.701194295008996]]]]}}, {"type": "Feature", "properties": {"borough": "Queens"}, "geometry": {"type": "Polygon", "coordinates": [[[-73.91067882737353, 40.70104596956685], [-73.91290404121894, 40.70236189179947], [-73.91180710069368, 40.703434952529385], [-73.92189184698678, 40.70939609671098], [-73.92074853115788, 40.71053364895891], [-73.92122073526357, 40.71079055855668], [-73.92154601695675, 40.71104328353504], [-73.92223466477611, 40.71285595436308], [-73.92313936349294, 40.71339472859371], [-73.92404011334023, 40.71400831262912], [-73.92405909736993, 40.714111560147714], [-73.92368352152519, 40.714082841408405], [-73.9240522324595, 40.71487024514028], [-73.92412241575492, 40.71513804844533], [-73.92409931290926, 40.71518070819944], [-73.92389709645263, 40.71537152830833], [-73.92376389043935, 40.715479717210066], [-73.92366895763205, 40.715535567938275], [-73.92354470735603, 40.715582672306994], [-73.92352547251075, 40.71561660836801], [-73.92279196672436, 40.715800263747816], [-73.92232970167696, 40.71607654517259], [-73.92064258940533, 40.71577319253161], [-73.9205690553611, 40.716003708340835], [-73.92057861388705, 40.71602742469095], [-73.92060425100038, 40.71603600719017], [-73.9222376112434, 40.71638244049431], [-73.92248379312586, 40.71695219661085], [-73.9227941474539, 40.71753457614416], [-73.92346602654162, 40.71813033432243], [-73.92344225406629, 40.718157018452736], [-73.92355479997038, 40.71831959132013], [-73.92365007474687, 40.718609194969154], [-73.92373690528115, 40.71875963739203], [-73.9238351219118, 40.71886842183388], [-73.92393867329348, 40.71904275678716], [-73.92397268584806, 40.71924218834548], [-73.92396652595392, 40.71971430332747], [-73.92395208918437, 40.719835367974134], [-73.92387758468857, 40.71989283604384], [-73.92388751535533, 40.71995385005913], [-73.92383575405634, 40.72014816407838], [-73.92397313388344, 40.72042680078017], [-73.92407539879343, 40.72069414864521], [-73.92422716247574, 40.720887344592064], [-73.92420577262753, 40.72098355910427], [-73.92421781243856, 40.7210224327543], [-73.92418927712013, 40.72105285125019], [-73.92416653051254, 40.7211657600817], [-73.92417342397546, 40.72122288406981], [-73.92423442657285, 40.72134769888653], [-73.9242436492106, 40.7214294982562], [-73.92450794340724, 40.72165894906265], [-73.92457018370769, 40.721771762389615], [-73.92464655219608, 40.72184260135794], [-73.92487063133562, 40.72192684609109], [-73.92491241131307, 40.721960138811625], [-73.9251355914158, 40.7222661331616], [-73.92515890839678, 40.72233497587308], [-73.9251926884825, 40.72237216632907], [-73.92519872182672, 40.722445423573966], [-73.92516890556875, 40.72247063256432], [-73.92508547471716, 40.72247073606893], [-73.92483298043817, 40.722946054450574], [-73.92473729610637, 40.723081798210394], [-73.92457852282968, 40.723459673953535], [-73.92451734212493, 40.72355224249973], [-73.92442298754928, 40.723589975483826], [-73.92431405339124, 40.72360475299917], [-73.92377758195005, 40.72361521396016], [-73.9229973006625, 40.7236692924137], [-73.92254728383853, 40.72360750421992], [-73.92242698747023, 40.72361014269697], [-73.92229897219241, 40.7236243566311], [-73.9222504231605, 40.72368220854999], [-73.92214330961276, 40.723707557018955], [-73.92164260329814, 40.723579363757345], [-73.92141367858304, 40.72349788219041], [-73.92125212089489, 40.72341059388092], [-73.92073356094122, 40.7233098127707], [-73.92067277335117, 40.72336669282482], [-73.92063256961379, 40.72346251540562], [-73.92058373536948, 40.72351948322606], [-73.9204264602165, 40.723554485573516], [-73.92037064235724, 40.72368111331864], [-73.92066663445787, 40.723760697699944], [-73.9209462455048, 40.72377980027516], [-73.92108547646293, 40.723811215086144], [-73.92124200387731, 40.72387849145476], [-73.92138101252573, 40.72390732132002], [-73.92166563480312, 40.724055316819125], [-73.92179483043961, 40.724084445243356], [-73.92191255372065, 40.724086173104425], [-73.92197438287532, 40.72412071447931], [-73.92221868964283, 40.72415824193388], [-73.92228620280896, 40.72418128643502], [-73.9223563819875, 40.724169365501155], [-73.92246219468572, 40.72417440816374], [-73.92256326829788, 40.724193053228724], [-73.9226909998882, 40.724240155116796], [-73.92289812823829, 40.72425877170444], [-73.92320876027148, 40.72426341925857], [-73.92321428988637, 40.72425181535159], [-73.92346284721462, 40.72424892817155], [-73.92368662861382, 40.7242687708211], [-73.92373820362327, 40.72428545581348], [-73.92412708328479, 40.72429260092623], [-73.92419217991149, 40.72427574169362], [-73.92465327395544, 40.72438764398455], [-73.92490316165177, 40.72450657567165], [-73.92528222312195, 40.72472087389927], [-73.92552386998959, 40.72488741719093], [-73.92655663912387, 40.72566906528741], [-73.92723433234396, 40.72641205574702], [-73.92721721119939, 40.726460645263124], [-73.9278527894413, 40.72699899076904], [-73.92810972310453, 40.7272613806746], [-73.9282834334517, 40.72751209083455], [-73.92855676085436, 40.727844828185766], [-73.92865537507299, 40.72789068006676], [-73.92910283484888, 40.728197678685916], [-73.9292348587616, 40.72826016576122], [-73.9304397104302, 40.728563137787276], [-73.9307087143373, 40.728606667604396], [-73.93099163669307, 40.72861759858392], [-73.93119267796648, 40.728642987776915], [-73.93126345392155, 40.728677203810676], [-73.93129800153329, 40.72872544111279], [-73.93453176375675, 40.72910480653514], [-73.93588751333363, 40.729465114872255], [-73.93644563967115, 40.72967214559876], [-73.93725405595639, 40.73013460441593], [-73.93777915695536, 40.73040047632092], [-73.93804478507161, 40.73050996784623], [-73.93875735978126, 40.73107820120559], [-73.93911054574804, 40.73137980652579], [-73.93940973698969, 40.73193481286348], [-73.93949645683922, 40.73219948191671], [-73.93941220925923, 40.73223586275382], [-73.9394641421489, 40.732301708739605], [-73.93954196713415, 40.7325070292991], [-73.93978436990288, 40.73298199456903], [-73.93991049829695, 40.733276328361946], [-73.94003200991092, 40.733245044305896], [-73.94016538640962, 40.73348637434488], [-73.94001807012909, 40.733540441275466], [-73.9401043685312, 40.733752950541465], [-73.94006709327033, 40.733762152980326], [-73.94034365972108, 40.7341952789316], [-73.94045033575217, 40.73443253627485], [-73.94086498592704, 40.73507040909124], [-73.94122480467027, 40.73544289009877], [-73.94162192243846, 40.73579878365039], [-73.94163596800144, 40.735819079398674], [-73.94162472636474, 40.735841442338426], [-73.94180143973271, 40.73596257820148], [-73.94208360671571, 40.73609177279656], [-73.94224043442604, 40.73618436068247], [-73.9426417150164, 40.736349516014556], [-73.94273679211508, 40.73636265686377], [-73.94324208181114, 40.73657908214638], [-73.94357675397869, 40.73669825857172], [-73.94359480342632, 40.73671778977374], [-73.94484628751296, 40.73712779455914], [-73.94594095987212, 40.73750507655417], [-73.9459447990511, 40.737545403140906], [-73.94591175927842, 40.73757093524105], [-73.94585686433777, 40.73756888271087], [-73.94581379024902, 40.73754530589022], [-73.94577543679408, 40.737555427542596], [-73.9455853649193, 40.73768435334385], [-73.94545576803195, 40.737752351992704], [-73.94501457717692, 40.73788553443431], [-73.94477519762304, 40.737996264085], [-73.944638600648, 40.73813835254227], [-73.9445384229628, 40.738105724138514], [-73.94447895031381, 40.738112575456796], [-73.94257885812185, 40.738816020268736], [-73.94280384267623, 40.73886154695902], [-73.94280080814424, 40.73888072353951], [-73.94255612805297, 40.73902086574682], [-73.94215338117509, 40.73908005176078], [-73.94146173463156, 40.73924858362738], [-73.94077801743279, 40.73992178145375], [-73.94050888805725, 40.74011394175328], [-73.94036159285052, 40.74033534565842], [-73.9405614496907, 40.74041832293435], [-73.94028230242282, 40.74079928241383], [-73.93910874138092, 40.74261703567946], [-73.93866991753184, 40.74253408202515], [-73.93858786976786, 40.74293088268765], [-73.93974435898761, 40.74315951259898], [-73.9397560191853, 40.743144017489605], [-73.9400192297566, 40.74320827221093], [-73.9401485852122, 40.74283244146026], [-73.93965301521378, 40.74273108709586], [-73.94004815102228, 40.74207122634086], [-73.94008406290699, 40.742063244641685], [-73.94118816696214, 40.74029021779218], [-73.94159470030033, 40.73986412616913], [-73.94165001879603, 40.739864154209904], [-73.9418350499271, 40.739692620714244], [-73.94203367165663, 40.73965693856134], [-73.94208664916357, 40.73959258700164], [-73.94237973008305, 40.739430471969804], [-73.94259666844879, 40.739395147803016], [-73.94272766121317, 40.73923159719599], [-73.94279045640067, 40.7391937212045], [-73.94269588366701, 40.73913388083188], [-73.942706089921, 40.73911506297882], [-73.94290141828846, 40.739003801504616], [-73.94329026866802, 40.739008622393364], [-73.9435316603867, 40.73892280549159], [-73.94364201133348, 40.73891939838852], [-73.94382272277525, 40.73887153786569], [-73.94392187163798, 40.73883662926456], [-73.94396995657188, 40.73878239606009], [-73.94433882538479, 40.738646239765025], [-73.9452386207261, 40.73835682364542], [-73.9453584794753, 40.738269485397396], [-73.94548236590111, 40.73820703129396], [-73.94601135253066, 40.73812081425018], [-73.94715087181176, 40.73790012334491], [-73.9503931919434, 40.739027560339764], [-73.95136030838314, 40.73931497403855], [-73.95138071451841, 40.73933647729526], [-73.9519220819223, 40.739487305928144], [-73.95219672758512, 40.73953625486506], [-73.95221537377104, 40.73950345675032], [-73.95283134418206, 40.73963599570558], [-73.95341454477163, 40.73973626995571], [-73.95379878808671, 40.73981986577471], [-73.95434254243452, 40.739798848660826], [-73.95478421779814, 40.73981591627362], [-73.95493966279436, 40.73978726870708], [-73.95531915980796, 40.739765571126235], [-73.95549441822823, 40.73977956093111], [-73.95562429351857, 40.73974672394622], [-73.95655856629813, 40.739666881255005], [-73.95682353900993, 40.73961472406375], [-73.95691900947335, 40.73961588576128], [-73.95697731731507, 40.7396348903062], [-73.95706179227868, 40.73963183281376], [-73.95741470765991, 40.739556582011744], [-73.95758450204676, 40.73950576691273], [-73.9576550372954, 40.73943488599142], [-73.9578129824211, 40.739381211045426], [-73.95798514776511, 40.73928735132584], [-73.9581231238344, 40.7392451043524], [-73.95890248656039, 40.738911197787985], [-73.95927346121147, 40.738723997548824], [-73.95978270346585, 40.73851171066145], [-73.95987349884916, 40.73848746390532], [-73.96006757901837, 40.7384837496239], [-73.96013085166251, 40.7384356390348], [-73.96014908547855, 40.73835134907866], [-73.96022036568877, 40.738316866132166], [-73.9602854405676, 40.738243992327234], [-73.9607258037368, 40.738080170179316], [-73.96216505619317, 40.73827253825913], [-73.9621314611295, 40.73845107065097], [-73.96247475087853, 40.73862818989734], [-73.9625505238162, 40.738700045856724], [-73.96260819750833, 40.73879553905679], [-73.96262015898652, 40.73903266212622], [-73.96243079071334, 40.73967148058574], [-73.96220916491808, 40.74000617499572], [-73.96179048263085, 40.74001313041701], [-73.9615365577327, 40.740159823604905], [-73.96141027195469, 40.740323621628306], [-73.96128517458084, 40.740349284886555], [-73.96124698011553, 40.74042359661301], [-73.96126107939791, 40.74044679504413], [-73.96131588369333, 40.74047063956524], [-73.96182638910636, 40.74063163419439], [-73.96193750086438, 40.740794878816075], [-73.96188806252042, 40.74098216980976], [-73.96180397489094, 40.7410976734724], [-73.96165251735405, 40.74113275709879], [-73.96145893775233, 40.74113750517686], [-73.96121862852013, 40.74110786013038], [-73.96111770387567, 40.74153727766165], [-73.96107358624143, 40.741625928074136], [-73.96107392567998, 40.741694504752346], [-73.96110901150813, 40.741794071464604], [-73.96126996809065, 40.74183108921309], [-73.96129091093209, 40.741793946623524], [-73.96136426747566, 40.74181006701633], [-73.96136486583062, 40.74183719790202], [-73.96133840200953, 40.7418716746823], [-73.96110814501434, 40.74182802540553], [-73.96117277851137, 40.74188633414125], [-73.96155253168952, 40.74199326140733], [-73.96119029789011, 40.74264485525991], [-73.96109548654573, 40.74278194722898], [-73.96097168385474, 40.742754054263905], [-73.96064602180344, 40.743392706263336], [-73.96054252040628, 40.74346639397162], [-73.9603510630808, 40.74353560372302], [-73.96021058066677, 40.74355011350719], [-73.9597747079782, 40.7435046837007], [-73.95971981529016, 40.743693045465484], [-73.95975586317581, 40.743698849450254], [-73.95970598360807, 40.74385865006141], [-73.96001568928234, 40.7439201098013], [-73.96002196197674, 40.743907306103466], [-73.95993157068438, 40.743799759516605], [-73.95994685233346, 40.743784575895276], [-73.96007363699394, 40.743929958335045], [-73.96012375375962, 40.74393920790268], [-73.96012885352134, 40.74392640379293], [-73.96003494096279, 40.7438131975338], [-73.96005765843066, 40.74380367501261], [-73.96017778721594, 40.743947863749504], [-73.96021654892107, 40.74395740754678], [-73.96021261942937, 40.74398093408061], [-73.96050887341629, 40.74404199265068], [-73.96052090981668, 40.74401974007549], [-73.96056856792404, 40.74402966608283], [-73.96051732602352, 40.74410534108139], [-73.96011951918781, 40.74402967229457], [-73.96010602637564, 40.74405870980712], [-73.95992298789854, 40.74402704209625], [-73.9599331149753, 40.74399458841122], [-73.95963225023952, 40.74393463191436], [-73.95936198209034, 40.744213976037294], [-73.9594036821734, 40.74422607474736], [-73.9593910660958, 40.744283324241444], [-73.95946013173084, 40.744292519797355], [-73.95946913213879, 40.74426775269999], [-73.95971280471133, 40.74431481741358], [-73.95972855228639, 40.74427211561957], [-73.96015525517686, 40.74436878260575], [-73.96012600962386, 40.744443936991644], [-73.96001147139246, 40.74442254304455], [-73.96002610056895, 40.74437386231284], [-73.95980151741615, 40.74432936858125], [-73.95979139383248, 40.74435584424748], [-73.95954322849336, 40.74430877879254], [-73.95952410819169, 40.744354895906255], [-73.95923368945668, 40.7443100430267], [-73.95903404086978, 40.744435216324405], [-73.95885419935779, 40.7444700911576], [-73.9587753700448, 40.74455559986359], [-73.95918723985145, 40.74462101125723], [-73.9592218857205, 40.744553805631064], [-73.95944240940852, 40.744604220612324], [-73.95946284296726, 40.74463249048955], [-73.95945726676902, 40.74467249932348], [-73.95938938708176, 40.744709954381456], [-73.95887919943338, 40.74462433145486], [-73.95875854834792, 40.74494500525308], [-73.95964901103122, 40.74513383995063], [-73.95966590587581, 40.74517030058277], [-73.95963675133878, 40.74520316973853], [-73.95960150585186, 40.7452073738492], [-73.9590666925802, 40.74511034530536], [-73.95907628880576, 40.7450924688075], [-73.95849389303115, 40.74498786491642], [-73.95845252269646, 40.74511901182237], [-73.95862451222615, 40.74514943066288], [-73.95862450071114, 40.74516797196022], [-73.95925084238476, 40.74531552963257], [-73.95929419130417, 40.74534486486326], [-73.95932982273551, 40.74539724775603], [-73.95933786844711, 40.74550760689611], [-73.95930281987289, 40.745576776799155], [-73.9592055760204, 40.745679506817865], [-73.95905935607935, 40.74575336834659], [-73.95896746083429, 40.74577507736571], [-73.95864152920834, 40.74572911522802], [-73.95856398158587, 40.745734697641325], [-73.95850227459326, 40.74576497421803], [-73.95852012701684, 40.745809666089826], [-73.95859993477018, 40.74589557544729], [-73.95914371692935, 40.74600060367864], [-73.95872036392852, 40.74664630161462], [-73.95866490741066, 40.74664202069683], [-73.95857744238785, 40.74675108484947], [-73.95840693398816, 40.74688730730486], [-73.95830782389993, 40.74706834919561], [-73.95845316727461, 40.74709794562883], [-73.95704097342924, 40.74892035087424], [-73.95485394268042, 40.748040794641135], [-73.95439317918219, 40.74795638062456], [-73.95430591777034, 40.747994815912726], [-73.95430434325938, 40.74800791985557], [-73.95437247709864, 40.74801628598396], [-73.95436619145806, 40.74804487434822], [-73.95415161163933, 40.748014411444935], [-73.95415476160203, 40.747988203563786], [-73.95422759407708, 40.7479989540378], [-73.95423466390264, 40.74796917471388], [-73.95430279744166, 40.74797694465781], [-73.9543647478346, 40.747951172533895], [-73.95318382492853, 40.747734811961145], [-73.95305375571401, 40.748087487229476], [-73.95478387869808, 40.74842768777343], [-73.95632162509656, 40.74908155393251], [-73.95601160302711, 40.74937399422694], [-73.95624926722698, 40.749486577709455], [-73.95622199020674, 40.74951730303063], [-73.95600065094622, 40.7493837032094], [-73.95576039140944, 40.74959665953036], [-73.95617416426413, 40.749665094491824], [-73.95619953007338, 40.749670714422955], [-73.95620136801152, 40.74968563282138], [-73.95612066345271, 40.74975988536959], [-73.95608794510895, 40.74976872916972], [-73.95559517265887, 40.749683968539756], [-73.95546436936395, 40.74967421308284], [-73.95534928514437, 40.750013856904104], [-73.95521529965907, 40.74999196768941], [-73.95522809429409, 40.74994344604057], [-73.95513239152478, 40.74992642433253], [-73.95520275040869, 40.749676537409684], [-73.95506652560155, 40.74963273037563], [-73.95451584573382, 40.75058669897693], [-73.95465000413118, 40.75083104095966], [-73.95447585916598, 40.75109726555979], [-73.9544985816368, 40.75122583574086], [-73.95391958666183, 40.75179900314876], [-73.95394896637777, 40.75182340686347], [-73.95389216558651, 40.7518907577703], [-73.9536210397202, 40.75208520768105], [-73.9529297093915, 40.75276364940415], [-73.95289896210177, 40.75279991962982], [-73.95290790650272, 40.75286038947264], [-73.95256792420359, 40.75316767101149], [-73.95201001989044, 40.753835013291], [-73.95193018728057, 40.753884821847635], [-73.9513143815353, 40.75457955013984], [-73.95101792732527, 40.75508691922262], [-73.95087701951545, 40.755166914705036], [-73.94783189516936, 40.75898919280192], [-73.94596424219858, 40.76129260661048], [-73.94580554804868, 40.76144956712127], [-73.94570525640735, 40.761488157056796], [-73.9447146080307, 40.7628788404268], [-73.94350282032728, 40.764499040744035], [-73.9413117494144, 40.766918004769806], [-73.94046256885547, 40.76753046980303], [-73.9403510378443, 40.76765337548503], [-73.93983559283014, 40.76798800593916], [-73.93953321663712, 40.768058744354434], [-73.93936587223833, 40.76815970187975], [-73.93895502453307, 40.76795818671982], [-73.93819730754757, 40.76869974435682], [-73.93806943217606, 40.76871540032436], [-73.93788768426388, 40.76855755343233], [-73.93777816678471, 40.768619051822746], [-73.93796200938895, 40.76872232349616], [-73.93795822895135, 40.76878493401806], [-73.93747109116856, 40.76895155858923], [-73.93681460654729, 40.768903947478584], [-73.93668539119408, 40.769133054691075], [-73.9367073798918, 40.769252609074314], [-73.93640381736164, 40.76947488451706], [-73.93616913919553, 40.769516114654735], [-73.93574021432624, 40.76936722986672], [-73.93524016831192, 40.76967932546317], [-73.93489533894557, 40.770041862889684], [-73.93469499067021, 40.770425338022775], [-73.93514715402594, 40.770541956058636], [-73.9350081387223, 40.77116239486677], [-73.93493892956698, 40.77116405317749], [-73.93490481282645, 40.771270641186845], [-73.93452730109435, 40.77117677510357], [-73.93443525743177, 40.771462362333594], [-73.93482622761688, 40.77157695807344], [-73.93480681344163, 40.771734138890075], [-73.93554844669596, 40.771953686825135], [-73.93556797049789, 40.771918777533706], [-73.93560853449766, 40.77193127768471], [-73.9355892281931, 40.77196597367686], [-73.93746638537067, 40.772531495125364], [-73.93781335969511, 40.773562894648144], [-73.93785811822775, 40.774087568973236], [-73.93767228253175, 40.775], [-73.91, 40.775000000000006], [-73.91, 40.7], [-73.91175230737244, 40.70000000000001], [-73.91067882737353, 40.70104596956685]]]}}, {"type": "Feature", "properties": {"borough": "Manhattan"}, "geometry": {"type": "MultiPolygon", "coordinates": [[[[-73.99947463838926, 40.70032277801849], [-73.99854220676173, 40.70000000000001], [-73.99967950539079, 40.70000000000001], [-73.99947463838926, 40.70032277801849]]], [[[-73.99513826840686, 40.70297411472301], [-73.99669768997464, 40.70087697691724], [-73.99682189085863, 40.70099078232546], [-73.99752763273973, 40.70122881695886], [-73.9977601103362, 40.70135941487688], [-73.99780162786313, 40.701319394766436], [-73.99813879899456, 40.70151878774599], [-73.99619227228733, 40.70337714086432], [-73.99513826840686, 40.70297411472301]]], [[[-73.99504592748325, 40.70313183979974], [-73.99544564312069, 40.703275305471955], [-73.99529346700933, 40.70355406589815], [-73.99480038274864, 40.70329195864474], [-73.99504592748325, 40.70313183979974]]], [[[-73.99488239902435, 40.70378802583759], [-73.99491043069519, 40.703797315958916], [-73.99492964609252, 40.70377131508396], [-73.99502925916447, 40.70380820086819], [-73.99488204726408, 40.70400865389533], [-73.99476934191567, 40.70395289495375], [-73.99488239902435, 40.70378802583759]]], [[[-73.98245898641562, 40.70554241447], [-73.98242287179878, 40.70582205545215], [-73.9810239061828, 40.70589891389373], [-73.98101733900947, 40.705797506467924], [-73.98230205183879, 40.705736979399845], [-73.98232944150563, 40.7055520336641], [-73.98245898641562, 40.70554241447]]], [[[-73.96656241897496, 40.718015866806425], [-73.96659690332669, 40.71796798139042], [-73.96718343223795, 40.718275921027725], [-73.96719282626957, 40.718265144022205], [-73.9673074147439, 40.71831306718433], [-73.96718243631241, 40.71848305630176], [-73.96706867689159, 40.71843903579147], [-73.96715101172583, 40.71831612643518], [-73.96656241897496, 40.718015866806425]]], [[[-73.96650150486255, 40.71919128043482], [-73.96644906386184, 40.719179141582856], [-73.96643687073043, 40.719139825344705], [-73.96636643139023, 40.71910049160152], [-73.96632227620138, 40.719104052376245], [-73.9663636385142, 40.71905045604845], [-73.96574267142807, 40.718706877777294], [-73.96575996533477, 40.71868903477947], [-73.96634580602196, 40.71901614134119], [-73.96637512101505, 40.71898467027385], [-73.96663600829653, 40.71913014271283], [-73.96654863298195, 40.71922157595264], [-73.9665137104634, 40.719202805475874], [-73.96646745714587, 40.71924344022138], [-73.96648075649607, 40.71935679107177], [-73.96652341507094, 40.71936849350555], [-73.96653866772382, 40.71939559908954], [-73.96652886928423, 40.719420613692506], [-73.9664913615978, 40.71943620891118], [-73.96645879444064, 40.71943334041518], [-73.96643313544087, 40.71939664104387], [-73.96646509449405, 40.71936043491014], [-73.96644323350931, 40.719243203651786], [-73.96650150486255, 40.71919128043482]]], [[[-73.96511736823715, 40.720316338856485], [-73.96567655698857, 40.72067896054055], [-73.96559823311401, 40.720744458402685], [-73.96503278328099, 40.72037706947511], [-73.96511736823715, 40.720316338856485]]], [[[-73.96436107956328, 40.72047723987732], [-73.96439735661679, 40.72044183392412], [-73.96486440927384, 40.720775541860824], [-73.96492581691784, 40.720720284447225], [-73.96503100130579, 40.7207908413713], [-73.96485304211545, 40.72095280485978], [-73.96475287190957, 40.72087748384261], [-73.96483433609437, 40.72079554693836], [-73.96436107956328, 40.72047723987732]]], [[[-73.9640659124426, 40.72079991096256], [-73.9643750430115, 40.72099255076879], [-73.96430846303332, 40.72105566948855], [-73.96402617524582, 40.720880893068916], [-73.9640659124426, 40.72079991096256]]], [[[-73.9642746249727, 40.72057576759408], [-73.96495059736691, 40.721424181604505], [-73.9648428486345, 40.72146417609479], [-73.96420193098578, 40.72065389425716], [-73.9642746249727, 40.72057576759408]]], [[[-73.96200744799044, 40.72399190110537], [-73.96207271943857, 40.7238803009057], [-73.96246790011057, 40.72413157960147], [-73.96247195112905, 40.72417498927368], [-73.96244340911427, 40.72419978548152], [-73.96239043044633, 40.72419356718694], [-73.96236596889439, 40.724209061614424], [-73.96200744799044, 40.72399190110537]]], [[[-73.96128261942144, 40.73006102501025], [-73.96140472395243, 40.73006105226417], [-73.96140171917759, 40.730111026113576], [-73.9616867065907, 40.73008186880128], [-73.96191028747243, 40.72996258061556], [-73.96188586360671, 40.72995256566808], [-73.96195920452797, 40.7298596684482], [-73.96202496266523, 40.72988542223795], [-73.96197794944985, 40.729944018749954], [-73.9622147445928, 40.729916935776906], [-73.96241964278757, 40.72980120811427], [-73.96248546579243, 40.72971116761521], [-73.9625493395233, 40.72974406784672], [-73.9624778771383, 40.72983696605579], [-73.96245157418113, 40.72982838012022], [-73.96226735368352, 40.72993124823966], [-73.96225228876577, 40.7299855669821], [-73.9621946350352, 40.72997597375578], [-73.96220156915895, 40.729954099237304], [-73.96194409928032, 40.72998689437492], [-73.9617072421667, 40.730121194792396], [-73.96128450722306, 40.730159062204145], [-73.96128261942144, 40.73006102501025]]], [[[-73.96197040783946, 40.73155233267019], [-73.9617128941469, 40.73156611384506], [-73.9616744677247, 40.7314812535529], [-73.96199050226615, 40.73146656570862], [-73.96199800352301, 40.73149325315437], [-73.962900068031, 40.73144780167759], [-73.96290258567535, 40.731428741149664], [-73.96320076537572, 40.73141740062487], [-73.96319829673003, 40.731350686907916], [-73.96328098663882, 40.731343088836624], [-73.9632809740348, 40.73136596207113], [-73.96355911991348, 40.73133555339177], [-73.96355164152972, 40.73126311974466], [-73.9636593923288, 40.73124981148223], [-73.96369938139063, 40.73143661955739], [-73.96358410965732, 40.73145755028242], [-73.96356661657303, 40.73137177115247], [-73.96328095722949, 40.731396459605335], [-73.96329343161838, 40.731495579328644], [-73.96290754784937, 40.73151642296405], [-73.96291505478298, 40.73153358010103], [-73.96197039369788, 40.73157711168562], [-73.96197040783946, 40.73155233267019]]], [[[-73.96056856792416, 40.74402966608278], [-73.96067204645489, 40.744051215856366], [-73.96064863700752, 40.74413031711164], [-73.96051732602348, 40.74410534108139], [-73.96056856792416, 40.74402966608278]]], [[[-73.96427364752464, 40.74654184455259], [-73.96433729322393, 40.74654572659336], [-73.96444522752651, 40.74641042526077], [-73.96458318426947, 40.74645440067349], [-73.96458702399427, 40.746515898544786], [-73.96447543657699, 40.746640833198015], [-73.96433758671752, 40.74673484818155], [-73.9642725620221, 40.746751308084235], [-73.96421616682368, 40.74683700083117], [-73.9641598028843, 40.74686554735973], [-73.96412514486175, 40.74684576060552], [-73.96413382933497, 40.74681279616561], [-73.96421192462765, 40.74666667680319], [-73.96421230395704, 40.74660431797426], [-73.96427364752464, 40.74654184455259]]], [[[-73.95749344070785, 40.74833646476331], [-73.95751889254925, 40.74830361959219], [-73.9576668047197, 40.748373479019044], [-73.9577265433446, 40.748294061895905], [-73.9578395394205, 40.7483380033754], [-73.9576883184342, 40.74853502687184], [-73.95757650467837, 40.74848852537849], [-73.95763576836282, 40.74840634746513], [-73.95749344070785, 40.74833646476331]]], [[[-73.93565635283768, 40.77175639643522], [-73.93552163065328, 40.771716293558455], [-73.93556621751405, 40.77162911588921], [-73.93585195294749, 40.77171600199284], [-73.93580987642521, 40.77179936862197], [-73.93569833888495, 40.77176690312413], [-73.93560853449772, 40.771931277684665], [-73.93556797049789, 40.771918777533706], [-73.93565635283768, 40.77175639643522]]], [[[-73.94180032729426, 40.76904692662487], [-73.94285528620705, 40.76830349440948], [-73.94381427322762, 40.76722091205007], [-73.9448402665221, 40.76582362839098], [-73.94662141408685, 40.763862772081126], [-73.94943175563205, 40.760548617361636], [-73.95033358814476, 40.75985675555376], [-73.95126005908772, 40.75881011637192], [-73.95148626283064, 40.7586664553521], [-73.95177822025997, 40.75840254987715], [-73.9520923302263, 40.75799314034503], [-73.95217663423699, 40.75783133644014], [-73.9522114634206, 40.757583639833086], [-73.95254079336877, 40.75709531453745], [-73.95330696035853, 40.756344327127685], [-73.95507326928161, 40.75479868255497], [-73.95519503183567, 40.75477452347639], [-73.9557941523772, 40.75416154740884], [-73.95692404304612, 40.75296116039392], [-73.95791452493187, 40.75210985452551], [-73.95860755756425, 40.75161332398709], [-73.9590324860946, 40.75138642277137], [-73.95902757442488, 40.75129736985113], [-73.95955875930795, 40.75081459776215], [-73.95990187081871, 40.75055851535377], [-73.96039170572537, 40.75025618611747], [-73.96083011462245, 40.7498876783976], [-73.96090586319525, 40.74980198197351], [-73.96098341649387, 40.749755403645075], [-73.96103586793579, 40.74974292494553], [-73.9610908021226, 40.74974415830735], [-73.96116476794676, 40.74977101159774], [-73.96132845481047, 40.74960095762466], [-73.96153855464473, 40.74972311984067], [-73.96138656171422, 40.74988050283607], [-73.96143982789111, 40.74994547214483], [-73.96143797780489, 40.75000591637866], [-73.96134951969928, 40.75009418874145], [-73.96111060141877, 40.7506004699009], [-73.96068557958185, 40.75120193696811], [-73.96001132395902, 40.75183151733522], [-73.95950079995129, 40.75295638169334], [-73.95901616627481, 40.753595059957576], [-73.95892671120951, 40.753562492361596], [-73.95845836805675, 40.753949236505065], [-73.95565513164131, 40.75709510572599], [-73.95559286273466, 40.75722280017375], [-73.95550425524475, 40.757333456072736], [-73.95390795119141, 40.75920087485093], [-73.95384294876447, 40.75923894538794], [-73.95366241810713, 40.75947973411367], [-73.95361272256534, 40.759502149014324], [-73.95332321617923, 40.75974596468759], [-73.95339140733955, 40.75979676235788], [-73.95312451504947, 40.76005275842971], [-73.9529778821611, 40.75996210737449], [-73.95208632266514, 40.76086215490759], [-73.9516250497398, 40.76167886360593], [-73.95097191594412, 40.762494507507704], [-73.95093734928088, 40.76257049523801], [-73.95073068782703, 40.76275822543396], [-73.94997191750257, 40.763646030317226], [-73.94920376022777, 40.76426964383294], [-73.94908628791565, 40.764264027275125], [-73.94770109012802, 40.76602239732534], [-73.94655273893119, 40.76736820506422], [-73.94591458905606, 40.76821393901886], [-73.94585112333094, 40.768247750235716], [-73.9458445142382, 40.76832122825157], [-73.94575361333564, 40.76830167142723], [-73.94570357268658, 40.768327934311664], [-73.94548114289289, 40.76862477943799], [-73.9456272109345, 40.768692953179055], [-73.94556302048748, 40.76880177602729], [-73.94540491850024, 40.76873217303875], [-73.9453820817897, 40.768763203047996], [-73.94524510341354, 40.768773268310575], [-73.94515704221519, 40.76911831775185], [-73.94472353220708, 40.769734058381616], [-73.94472478497455, 40.769786271535025], [-73.94456161517566, 40.76988639592755], [-73.94427007063555, 40.77014053525487], [-73.94400423956336, 40.77029398215101], [-73.94320414114229, 40.7709923997488], [-73.94281710960279, 40.77141086070245], [-73.94257830301011, 40.771701856718664], [-73.94212674646828, 40.77203470050959], [-73.94136990742406, 40.772309150827894], [-73.94088707211625, 40.772372516278764], [-73.94056957420625, 40.772614758964316], [-73.94027460921222, 40.77294743739572], [-73.94017959804104, 40.77295931559456], [-73.94007665751654, 40.77292618635812], [-73.94001157258354, 40.77284236055276], [-73.94018451224514, 40.772564906804355], [-73.94028207924197, 40.7723014069914], [-73.94027766722357, 40.771713141739696], [-73.94020021779653, 40.77112830566291], [-73.94022870389078, 40.77085226166454], [-73.94027985829325, 40.77067071100996], [-73.9403553347751, 40.77049657437123], [-73.940826053003, 40.769912156765756], [-73.94111778718026, 40.76941440857483], [-73.94125975382602, 40.769308879392845], [-73.94180032729426, 40.76904692662487]]], [[[-73.94293043781397, 40.77467626803599], [-73.94366431814802, 40.77384076417698], [-73.94487889596707, 40.77256956200745], [-73.94640418919069, 40.77126904561942], [-73.94866416477923, 40.768857623897055], [-73.94937332131504, 40.76788219105454], [-73.950069793031, 40.76702508788091], [-73.95122497666563, 40.76577119897362], [-73.95441826078607, 40.76218410495123], [-73.95587222339073, 40.76090471211576], [-73.95845501743894, 40.75858090219769], [-73.95877790822699, 40.75827092084892], [-73.95905574721682, 40.75792987282024], [-73.95918103286087, 40.75785611105264], [-73.95965770876657, 40.757260145123404], [-73.95966400300107, 40.75721141218705], [-73.96036455140823, 40.756269411133566], [-73.96065638180474, 40.75592314955038], [-73.96102790867165, 40.75561058457924], [-73.96162927534917, 40.7551523842593], [-73.96219381838414, 40.75450431515342], [-73.96223125165591, 40.754522130422046], [-73.96289729202545, 40.75376551709448], [-73.96286896769232, 40.75374250915707], [-73.96316074049744, 40.753412207328324], [-73.96532405586478, 40.75104771827218], [-73.96817376101073, 40.747666753741925], [-73.96836519324148, 40.74743349462028], [-73.96823171715788, 40.74736847648939], [-73.96894301109302, 40.74651833569667], [-73.96897366849493, 40.74652900683407], [-73.9689998159544, 40.74650193527514], [-73.9698756140306, 40.745444789137814], [-73.9699122797576, 40.745451759436406], [-73.96997377026275, 40.74549574743079], [-73.97033931161249, 40.74504963202264], [-73.97032571931103, 40.745023261400334], [-73.97044255488981, 40.74487037651231], [-73.97047240576438, 40.74486624174782], [-73.97050560032659, 40.744823764259465], [-73.9707883477664, 40.7444062176905], [-73.97094062960419, 40.74447144402558], [-73.97111438123977, 40.74420436093264], [-73.97075833953681, 40.74403919038249], [-73.97070317531687, 40.74399049490893], [-73.97076123524714, 40.74394210764184], [-73.97117346753164, 40.744107535008425], [-73.97135752941868, 40.74383845535964], [-73.97120546301967, 40.74377151030148], [-73.97188888913065, 40.74272481985312], [-73.97174059715825, 40.74266358001168], [-73.97195955856256, 40.74233792154383], [-73.97228992099217, 40.74072103903195], [-73.972182685701, 40.740706279909794], [-73.97216477368657, 40.7406757221293], [-73.97221525425901, 40.74042656351957], [-73.97223504317165, 40.74041340340216], [-73.97219641647789, 40.74040257925302], [-73.97221685422328, 40.74030762506169], [-73.97227001334156, 40.74030857434586], [-73.97224837803643, 40.740291171858864], [-73.97231030439093, 40.740018512675], [-73.97243888981419, 40.74002174997341], [-73.97265743803038, 40.73922275427716], [-73.97262084766358, 40.73852066549372], [-73.97263884800151, 40.73839530977735], [-73.97260609997485, 40.73793867228892], [-73.97261872947438, 40.73791467680081], [-73.97260457307685, 40.73782227307583], [-73.97259038224679, 40.736769654842426], [-73.97248994174741, 40.7358032801078], [-73.97251016786021, 40.735787129859794], [-73.97286939178467, 40.73577086128573], [-73.97441385816532, 40.73641439385912], [-73.97445975070463, 40.7362940197185], [-73.97439952343315, 40.73628408358729], [-73.97402692104305, 40.73612576724569], [-73.97404679254475, 40.73609992943224], [-73.97446647047286, 40.73627845683009], [-73.97450376013228, 40.736064588444215], [-73.97443372879957, 40.73605371636713], [-73.97414062018392, 40.73595565666491], [-73.97415127634781, 40.73593379266826], [-73.97444828612832, 40.73603779235671], [-73.97450488285943, 40.73604228103947], [-73.97451459772599, 40.7358945984114], [-73.97450793938161, 40.73579694577255], [-73.97448854079063, 40.735875680246544], [-73.97445077717819, 40.73586912996688], [-73.97446233335455, 40.73583114456839], [-73.97424982468374, 40.73579718202018], [-73.97425866775502, 40.73576626816402], [-73.9744704050787, 40.7357978722553], [-73.97446537767371, 40.735666886063875], [-73.97419233708438, 40.73568012679825], [-73.9741895600019, 40.73565991276949], [-73.97415747430529, 40.73565784198292], [-73.97414616523469, 40.73567162151052], [-73.97341869582557, 40.735367737300315], [-73.97343881801847, 40.73534121781422], [-73.97305698712047, 40.73517745341573], [-73.97280661710461, 40.73552391852132], [-73.97293673973685, 40.73559924929983], [-73.97293031926458, 40.73560761439684], [-73.97276308380353, 40.73550508747374], [-73.97299695202484, 40.735186506891296], [-73.97296395268094, 40.7351690661775], [-73.9729318560978, 40.73520531236917], [-73.97288512856933, 40.73518020390205], [-73.97286403116163, 40.7352122670154], [-73.97283745943461, 40.735199716704585], [-73.97294520758682, 40.73506517007128], [-73.97296719785798, 40.73507843076699], [-73.97294519031814, 40.73510770051329], [-73.97299560236587, 40.73512793798328], [-73.97297083635605, 40.735157216971444], [-73.97300291199267, 40.73517256003543], [-73.97303684713711, 40.735127947647705], [-73.9732989504614, 40.73524235507728], [-73.97332187458159, 40.735201918664984], [-73.97327241144065, 40.73511893385164], [-73.97329627362966, 40.7350408566427], [-73.97336870942675, 40.73498927476285], [-73.97341821248351, 40.73497115816128], [-73.973522708343, 40.7349753608471], [-73.97354472883961, 40.73494432610164], [-73.97444065082591, 40.73531677190073], [-73.97395905029711, 40.733421165538616], [-73.97389120382256, 40.73330926190467], [-73.97386631865598, 40.73331097608694], [-73.97384483854886, 40.73326536111392], [-73.97386520802412, 40.7332464280398], [-73.97385730036494, 40.73321630363872], [-73.97380976846561, 40.73324899937312], [-73.9737837578338, 40.73322748120824], [-73.97380298847435, 40.73321198753996], [-73.97378376867172, 40.73319993432456], [-73.97372718707769, 40.73321971435106], [-73.9736762757606, 40.733205933888215], [-73.97369438098609, 40.73319560901117], [-73.97369212859807, 40.73317409625021], [-73.97373739762322, 40.73314311937253], [-73.97380529755272, 40.7331207579871], [-73.97381887171846, 40.733099247654756], [-73.97387206174017, 40.733094954806816], [-73.97386810776207, 40.73306568719578], [-73.97341321730858, 40.73128241642885], [-73.97323625417937, 40.73105692674119], [-73.9730060597536, 40.73082313241324], [-73.97255990007292, 40.7304580936183], [-73.97208918590233, 40.730118357041825], [-73.97196340301248, 40.73000037721766], [-73.97174822357016, 40.72974201454474], [-73.9716272999856, 40.72955788414618], [-73.97147994907228, 40.72924957719601], [-73.97143221814216, 40.72906361904435], [-73.97141235109775, 40.72887985602181], [-73.97140617908519, 40.72871876425123], [-73.9714271844355, 40.72848582588513], [-73.97155553514955, 40.7277031085983], [-73.97157278760145, 40.72764591976785], [-73.97165160075588, 40.72764321253478], [-73.97168514866583, 40.72740588663671], [-73.97153686592743, 40.72739296510097], [-73.97149260058238, 40.72737312335152], [-73.97149039092855, 40.7273500976075], [-73.97176755410239, 40.72583330295221], [-73.9717914296149, 40.725814221149236], [-73.97181650587754, 40.725814966250084], [-73.97208400057288, 40.72446790554588], [-73.97314808331102, 40.71999057325975], [-73.97357185653419, 40.71859722942143], [-73.97391750479419, 40.71759358306236], [-73.97429237062839, 40.71659602766552], [-73.97469626768377, 40.715605055658344], [-73.97512899530274, 40.71462115619685], [-73.9761236883879, 40.71246032539852], [-73.9761653123832, 40.71242019791099], [-73.97642872514528, 40.711909032503854], [-73.9765500881422, 40.71173453872846], [-73.97681883540048, 40.711419567523926], [-73.97705659401754, 40.711197626466976], [-73.97752668432639, 40.71084307273331], [-73.97782091638246, 40.710645444907165], [-73.97799674790384, 40.71056101739178], [-73.97825557749212, 40.71049790905545], [-73.98033652490473, 40.71035920071487], [-73.98033090124429, 40.710286938313715], [-73.98128647552558, 40.71021834788182], [-73.98124579569945, 40.70982621460142], [-73.98839064023267, 40.709126949162815], [-73.98844653437385, 40.70913382054716], [-73.9884972717388, 40.70917630529335], [-73.9886365807185, 40.70991206151646], [-73.98869610271332, 40.70992844984472], [-73.98873681707525, 40.709970741845254], [-73.98879717785803, 40.70996660747239], [-73.98957449608719, 40.709874081606685], [-73.9907891301856, 40.70968950658886], [-73.9913510923706, 40.7096203327035], [-73.99374012862228, 40.70924612043551], [-73.99414063200345, 40.7092332674001], [-73.99437823543936, 40.70919263919909], [-73.99457899963724, 40.70913097291023], [-73.99517577369836, 40.70903429330791], [-73.99728287195578, 40.70873161984307], [-73.99808351186999, 40.70850961536731], [-73.99852758585311, 40.708331527908456], [-73.99880846276645, 40.708200134992836], [-73.9988813086388, 40.708136633919956], [-73.99898340963244, 40.70809265331633], [-73.99913434918952, 40.70798239694612], [-73.99952324941067, 40.70776262865831], [-73.99949062474623, 40.70772184522518], [-73.9995383965945, 40.70769347002584], [-73.99960948039251, 40.70775997317647], [-73.9999485594979, 40.707591496371165], [-73.99997222648798, 40.70750639882222], [-74.00023380525761, 40.70734714248703], [-74.00084973367689, 40.70704311863672], [-74.0011868526283, 40.706859825771936], [-74.00113130577202, 40.706799050684694], [-74.00123213691967, 40.70674033642858], [-74.00116039022576, 40.70666372083448], [-74.0011760207968, 40.706627574359175], [-74.00098276691733, 40.70641671299312], [-74.00140666691954, 40.706179388020814], [-74.0005924020935, 40.70541007891111], [-74.00145437418847, 40.70487330343224], [-74.00206142563808, 40.705417005138344], [-74.0021581834855, 40.70535711911871], [-74.00256965059467, 40.70552357952368], [-74.00268512768794, 40.705449248118846], [-74.00236285311746, 40.705158966692785], [-74.0024157347692, 40.705129311785285], [-74.00197070397947, 40.704737867984804], [-74.002171849419, 40.704606596463876], [-74.00233344621164, 40.704748135307184], [-74.00243071075865, 40.704677858004516], [-74.00248790148639, 40.70473376058921], [-74.00238670740679, 40.70479566367467], [-74.00332307270787, 40.70562859522025], [-74.00383327532259, 40.70530324302657], [-74.00366217837694, 40.705149759739335], [-74.00358390952114, 40.70519264914818], [-74.00355259950756, 40.70516644083436], [-74.00363086901315, 40.705123551446675], [-74.00262896407828, 40.70422295278162], [-74.002866897815, 40.70407522551174], [-74.00405666439265, 40.70514736343911], [-74.00602048621096, 40.703874900102036], [-74.00614106753552, 40.70398097343561], [-74.0065959191387, 40.70368590194944], [-74.006320807539, 40.703466761029055], [-74.0054838408244, 40.70271432213423], [-74.00552682615239, 40.702685287617314], [-74.00550531272071, 40.70266684658575], [-74.00547130861277, 40.70268982908367], [-74.00542728826248, 40.70266543619422], [-74.00530412596079, 40.70255986563323], [-74.00549427805099, 40.702431381453174], [-74.00561361797627, 40.70253024203252], [-74.00558909594902, 40.702612730597025], [-74.00553546138177, 40.702645521107016], [-74.00555771998816, 40.70266439465221], [-74.00567522249854, 40.70258407219774], [-74.00678502191047, 40.703568127402896], [-74.00751905283795, 40.703121819734726], [-74.00769798694176, 40.70284927854697], [-74.00911037361746, 40.70198387051121], [-74.00929072600606, 40.701930071319545], [-74.00869964313567, 40.701139867542395], [-74.00775549150644, 40.70154800217457], [-74.0075913620422, 40.7013280810483], [-74.00853611510774, 40.700919695745235], [-74.008349275591, 40.7006693483884], [-74.00862036163869, 40.700552163713446], [-74.00958483017605, 40.701837385563415], [-74.01105603841502, 40.70145418141225], [-74.01118088303541, 40.70145139225388], [-74.01110775373041, 40.70127576447384], [-74.01128983905525, 40.70124998224444], [-74.0112097577877, 40.70104458327395], [-74.01112868539609, 40.70106489745063], [-74.01107837974551, 40.70095712031528], [-74.01106708568963, 40.70091494089502], [-74.01110886351545, 40.7009014201039], [-74.01109337389371, 40.70085125657577], [-74.01107872437127, 40.70085194903657], [-74.01103748928746, 40.700757131248295], [-74.01101538388575, 40.70074112429666], [-74.01102945843246, 40.7007311709939], [-74.01099272755786, 40.700690593047234], [-74.01100361903022, 40.70066806679796], [-74.01099134410617, 40.700673352282195], [-74.01096997178928, 40.70064553608976], [-74.01098841773411, 40.70063424450271], [-74.01095827294417, 40.70057459160022], [-74.01092482717033, 40.70056679303653], [-74.01094712848689, 40.70053774303593], [-74.01091918086524, 40.70048646309209], [-74.01090496934044, 40.700491783764114], [-74.01088462665342, 40.70046142740972], [-74.0109036642329, 40.700451381512565], [-74.01078537980491, 40.70023251447092], [-74.01081530667369, 40.70020044410136], [-74.01085157384671, 40.700238511085075], [-74.01115033556839, 40.700898400101124], [-74.01135836291354, 40.700851958636505], [-74.01129816432253, 40.70059888452948], [-74.0113340941042, 40.70056835368245], [-74.0113817187564, 40.70057025711801], [-74.01150291143712, 40.70081505897437], [-74.01172926817476, 40.70077011805984], [-74.01168275397707, 40.70069334506224], [-74.01161019835878, 40.70049300642165], [-74.01163147918649, 40.7004582182483], [-74.0117260583568, 40.700478604422045], [-74.01185378549589, 40.70073892145032], [-74.01208668214693, 40.70068130873935], [-74.01206932171665, 40.700599733344255], [-74.01185672556994, 40.70010710340857], [-74.01196196116918, 40.70003754559562], [-74.01204027930206, 40.700048091645726], [-74.01208842091692, 40.7000865841922], [-74.01223694549938, 40.700321277844466], [-74.01239160032284, 40.70062052809419], [-74.01259392327508, 40.70057083347261], [-74.01251593564191, 40.700184648480324], [-74.01251511280124, 40.70015049211098], [-74.01254202780166, 40.70013497414846], [-74.01261382087367, 40.70010826581125], [-74.0126480885809, 40.70011508828316], [-74.01268072728449, 40.700146755381624], [-74.01283454933409, 40.700352874734655], [-74.01290881793956, 40.70052361169368], [-74.01310747847371, 40.700507452180815], [-74.01311153191459, 40.700360290603314], [-74.01305338551012, 40.70000000000001], [-74.01317537641643, 40.70000000000001], [-74.01320736787197, 40.70027521651902], [-74.01327349483086, 40.700496870227944], [-74.01348560832739, 40.7004782229086], [-74.01348311536113, 40.700263388116475], [-74.01350349660866, 40.700176459528436], [-74.01353285018102, 40.70010816142342], [-74.01358669315097, 40.700079590847785], [-74.01361029830721, 40.7000842980873], [-74.01367479314794, 40.700125821451], [-74.01364265186702, 40.70016178280957], [-74.01361182269146, 40.70024517414818], [-74.01357049009941, 40.70023220287155], [-74.01356130931909, 40.70029512215841], [-74.01353310205637, 40.700297124245914], [-74.01353047796475, 40.700311100346646], [-74.01356131236537, 40.70031009758531], [-74.01356034144283, 40.700366533437446], [-74.0135314747603, 40.70038201618379], [-74.01356297111607, 40.70038001320659], [-74.01355970548933, 40.70043893442761], [-74.01352361756736, 40.700441937578496], [-74.013522959189, 40.70046041540717], [-74.01358070018833, 40.70045691449314], [-74.01358541798506, 40.70050191275641], [-74.01355283229515, 40.70050335766724], [-74.01357712822566, 40.70064368147621], [-74.01351039592653, 40.70065037115225], [-74.01355826959487, 40.70093987083072], [-74.01395152756511, 40.70099098246015], [-74.01422063195494, 40.7001114913659], [-74.01430981311296, 40.700121296068886], [-74.01430981586157, 40.7001341015158], [-74.0141778793178, 40.700541473553876], [-74.01416495763293, 40.700539052030976], [-74.0141523878731, 40.70057786628628], [-74.01428920741134, 40.70064414476523], [-74.01455999973693, 40.70030978677983], [-74.01458425440427, 40.70030846895527], [-74.01458234409445, 40.700283875528726], [-74.01463294333459, 40.70019742991], [-74.01467119992007, 40.700210401197275], [-74.01460825448508, 40.70032365711401], [-74.01432384363027, 40.70066130462987], [-74.01464323234912, 40.700817304325284], [-74.01506818269304, 40.70031825755512], [-74.01509832270126, 40.700334265523615], [-74.01503579735079, 40.700420831010774], [-74.0149931457591, 40.70043684732], [-74.01492322289359, 40.700515191471624], [-74.01492379463954, 40.70053033870729], [-74.0149419915596, 40.70052384332593], [-74.01467365628488, 40.70083460902858], [-74.0150211366168, 40.70099250401358], [-74.01514231812101, 40.70084289235444], [-74.01579351711152, 40.70134690580767], [-74.01613890636003, 40.70164601710288], [-74.01651515260784, 40.7020172986716], [-74.01714508062659, 40.70270534997635], [-74.01749381162757, 40.70315484295768], [-74.01762601904936, 40.7034227607247], [-74.01766881307273, 40.70359131346784], [-74.01777128020329, 40.703583815929825], [-74.01776730114295, 40.70354518126104], [-74.01787839340639, 40.70353850803738], [-74.01789088495364, 40.703625207771836], [-74.01777639388398, 40.70363255834218], [-74.01777128399804, 40.70359805088019], [-74.01767132020267, 40.703606427383974], [-74.01768310568113, 40.703711131225475], [-74.0176430653269, 40.70398897295898], [-74.01765461989739, 40.70400968256996], [-74.01762657963042, 40.70402350132435], [-74.01757035640019, 40.704183880986754], [-74.01779454520292, 40.704234897598944], [-74.01785585682929, 40.70407884711323], [-74.01775054986868, 40.704054882893665], [-74.01779139303439, 40.70395091258379], [-74.01781758697946, 40.70393792249673], [-74.01783782825969, 40.70396266613868], [-74.01780821746958, 40.7040319644798], [-74.01791229326221, 40.70405449715117], [-74.0179426936393, 40.70397317657641], [-74.01795473982637, 40.70397578611134], [-74.01784441106724, 40.70424203993808], [-74.01844704670988, 40.70416235496205], [-74.01865886498045, 40.70442877929025], [-74.01751646371467, 40.70458062415007], [-74.01748090483301, 40.70466726085802], [-74.0175703146188, 40.704662623998146], [-74.01759808539691, 40.70468427213649], [-74.017718379389, 40.70467969845172], [-74.01797892738368, 40.704640824588054], [-74.01802418707244, 40.70464574984399], [-74.0180429299157, 40.70462803711049], [-74.01806509374255, 40.704635825991765], [-74.01811302905885, 40.704553602333924], [-74.01888747947997, 40.704729142804425], [-74.01892572382414, 40.70477376257046], [-74.01934254624474, 40.706093672527274], [-74.01912275963412, 40.70697581433759], [-74.01906617140145, 40.70701377062164], [-74.01895359463371, 40.706996769465675], [-74.01888462028894, 40.707085805536956], [-74.0187964493679, 40.70712781984774], [-74.01872626987434, 40.70714335568652], [-74.01863058372714, 40.707139715772044], [-74.01854718475342, 40.70710777026439], [-74.01857117399437, 40.70707992238881], [-74.01864437101173, 40.707105475860615], [-74.01864796262211, 40.70708173803014], [-74.01876194037419, 40.707075785364474], [-74.01874993323992, 40.70704976248969], [-74.01882011914353, 40.707015972883156], [-74.01884889814508, 40.70697031235039], [-74.01881110035019, 40.7069662117743], [-74.0187757159848, 40.70699725864664], [-74.01864794474125, 40.70701781957859], [-74.01860474411275, 40.70698906417743], [-74.01856452356978, 40.70690644010942], [-74.0185351326967, 40.70691832201426], [-74.01819029259647, 40.70782162611011], [-74.01865557049648, 40.70792394888343], [-74.01864689079085, 40.707946813547146], [-74.01880063068425, 40.70798062163758], [-74.0188319588391, 40.70799916678933], [-74.01885500911968, 40.708047534447594], [-74.01811057789178, 40.7110296282146], [-74.01777014254505, 40.71283457478932], [-74.01775292705901, 40.712848327556145], [-74.01772021563546, 40.71284473093379], [-74.01772148946115, 40.712784144610644], [-74.01780037888393, 40.71234512415872], [-74.01662424425291, 40.712157318995494], [-74.01654463812528, 40.71245603793114], [-74.01659227582778, 40.71254817107701], [-74.0166181765532, 40.71264976356924], [-74.01661840078305, 40.71275615002984], [-74.01659149520499, 40.71286156321744], [-74.01654112171731, 40.71295556481953], [-74.01639169485816, 40.713099997950906], [-74.01632006627581, 40.713407982478444], [-74.01757952508993, 40.71359549038381], [-74.01767041664053, 40.71306920796527], [-74.01769698578217, 40.71305582257523], [-74.01772496219296, 40.71307018162288], [-74.01671018605823, 40.71862417605817], [-74.01669419095941, 40.71864884335457], [-74.01662996338192, 40.718665368450424], [-74.01594695204274, 40.71857554890644], [-74.0159438298421, 40.71858925504436], [-74.01566883666857, 40.71855448876333], [-74.01567062060747, 40.71853774823381], [-74.01500060682412, 40.71844923605518], [-74.01498333230722, 40.718523791433164], [-74.0149451554934, 40.71854353507732], [-74.01321322719193, 40.71831571989593], [-74.01306805492318, 40.71892219382566], [-74.01290892764018, 40.71973485170661], [-74.01345505633182, 40.71980170742638], [-74.01341376512872, 40.72001948201438], [-74.01399452219557, 40.720085649466704], [-74.01399999964441, 40.72006718366165], [-74.01426696671713, 40.72008680714385], [-74.01557364096601, 40.720243294464986], [-74.01557364347123, 40.72025401550964], [-74.01571378469997, 40.72027067526838], [-74.0157130096578, 40.720303435742075], [-74.01637848291482, 40.72037660883105], [-74.01630573342837, 40.72072702003829], [-74.01299980679079, 40.72033309075022], [-74.0128973027087, 40.72086804597598], [-74.01569471973286, 40.72120642487544], [-74.01562245781948, 40.72154345367391], [-74.01316066673286, 40.721253963194776], [-74.01311663311996, 40.72147373453092], [-74.01325380075872, 40.72148992000137], [-74.01326193939082, 40.72147181193327], [-74.01363523640495, 40.721516561134564], [-74.01361558335005, 40.72158618255959], [-74.01325565118515, 40.72154385653947], [-74.01325799654838, 40.72152777302949], [-74.0131123731524, 40.72150992029584], [-74.0131037691494, 40.721554595471346], [-74.01253875807262, 40.72150317657655], [-74.01165326569942, 40.725871761851536], [-74.01195833074836, 40.725977599218496], [-74.01231588417473, 40.72603384328552], [-74.01516324118423, 40.726319711936995], [-74.01520426531143, 40.72636194937977], [-74.01512356549473, 40.7267939430673], [-74.01154201897596, 40.72644734642468], [-74.01138323604756, 40.728229272367344], [-74.01439069932388, 40.72846304752031], [-74.01434461474166, 40.72862218378166], [-74.01421928543022, 40.72952342775569], [-74.0140774139114, 40.73064040918805], [-74.01408693559918, 40.73066317304047], [-74.01403796924798, 40.730694218844064], [-74.01401552295431, 40.73068283965626], [-74.01116195696476, 40.730450676349214], [-74.01099350879153, 40.73232041794078], [-74.01094118226749, 40.73300776326952], [-74.01146083559178, 40.73302841363855], [-74.01400220214607, 40.73306800179564], [-74.01399957240966, 40.73333227751791], [-74.01090389883285, 40.73329761713974], [-74.0108984071244, 40.73335120737617], [-74.01081925594468, 40.733364871172114], [-74.01077473673004, 40.733388630324114], [-74.01072972404017, 40.73346340243441], [-74.01075758216963, 40.73354353860267], [-74.01086654686934, 40.733602738017], [-74.01083284563212, 40.73400709401115], [-74.01201792010474, 40.7340637444565], [-74.01200124222393, 40.73433840116636], [-74.01081359479109, 40.734283443647755], [-74.0106429201788, 40.736048697705044], [-74.01067724659342, 40.73605627995698], [-74.0106698675122, 40.73610193192931], [-74.01071702975841, 40.73614635650898], [-74.01073180968531, 40.73620416714788], [-74.0107087188013, 40.73626038068584], [-74.0106551258418, 40.73630068916542], [-74.01065421033887, 40.736347744743476], [-74.01061910077432, 40.73634539072197], [-74.0104765981442, 40.73806394059523], [-74.0110870663595, 40.73809275008146], [-74.01106791934328, 40.738304096174225], [-74.01110665714643, 40.738333198299124], [-74.01113915602562, 40.73838986281322], [-74.01105126196637, 40.73839642575081], [-74.01045432864602, 40.738364505725755], [-74.01039303134563, 40.73917429656194], [-74.01055473996811, 40.7391862390492], [-74.01074676135302, 40.739175936679786], [-74.01138798406559, 40.73921605608881], [-74.0114845673462, 40.73926046209167], [-74.01158045502316, 40.73926453611218], [-74.01158715816625, 40.73947886983239], [-74.01163351895192, 40.73950648606629], [-74.01162792311769, 40.73956247360375], [-74.01155518156285, 40.73955672622747], [-74.0114607395534, 40.74058421475269], [-74.01215741913089, 40.740605998131436], [-74.01215372624051, 40.74067425662087], [-74.01265742489994, 40.74069665223196], [-74.0126592820849, 40.7407476384976], [-74.01147486918863, 40.74068706027121], [-74.01137438820489, 40.740723947641506], [-74.00963145571754, 40.74064536737442], [-74.00949685520361, 40.740727011785665], [-74.00951844195933, 40.74080572291708], [-74.00946293860208, 40.74090233724049], [-74.00941140266131, 40.74115409331304], [-74.00953902448505, 40.741251158616315], [-74.00966433364141, 40.74129880035866], [-74.00961923440443, 40.74136361051497], [-74.01020818993538, 40.74160753792842], [-74.010383580722, 40.741397853526756], [-74.01139609242074, 40.74182281323528], [-74.01083987411933, 40.742596734022634], [-74.01029100591903, 40.742358524639805], [-74.01012563710833, 40.742575831777195], [-74.00932113973238, 40.74224424271676], [-74.00928105078988, 40.74230524043314], [-74.00919185382803, 40.742292631516854], [-74.00909156846193, 40.742886149072554], [-74.00962015348912, 40.74295124838992], [-74.00956843411765, 40.743257784726545], [-74.00958464345703, 40.743263520483254], [-74.0121194002866, 40.743516612182724], [-74.01214813183593, 40.74355930154771], [-74.0120900828903, 40.74389763764903], [-74.01206903486668, 40.7439224935485], [-74.01202085006399, 40.743939770209], [-74.00951201767367, 40.74367609376045], [-74.00948868364232, 40.74369568168226], [-74.00943800870864, 40.74397125547323], [-74.00890032962842, 40.74391792709619], [-74.00872780058874, 40.7448582329102], [-74.00872986359421, 40.74488153782985], [-74.00961227924414, 40.74499790315072], [-74.00955832929749, 40.74528882529887], [-74.00991660813456, 40.74532725500723], [-74.00993436677696, 40.745317078102005], [-74.00999822601715, 40.744955059302285], [-74.00986948474728, 40.74493391770732], [-74.0098721108548, 40.74491650212594], [-74.01016790535392, 40.744942329709765], [-74.0101646519737, 40.74496392462992], [-74.01005375656217, 40.74495423493007], [-74.01003848384612, 40.744963458078324], [-74.0099739502192, 40.745323135109416], [-74.00999095379996, 40.74533668617151], [-74.01046920011868, 40.745386766029156], [-74.01048835594965, 40.74537571509485], [-74.0105504475589, 40.74501305720761], [-74.01041700660257, 40.744993582703515], [-74.01041937209389, 40.74497682417124], [-74.01076419780692, 40.745005032020956], [-74.01076156046138, 40.74502372618368], [-74.01060621540192, 40.74501101647447], [-74.01058579200931, 40.74502044656173], [-74.01053106537704, 40.74538205038964], [-74.01110359804885, 40.74544767024412], [-74.01117183119825, 40.74507825828353], [-74.01104281748228, 40.74506096342376], [-74.01104459150831, 40.745046212402194], [-74.01138769974182, 40.745073112682775], [-74.01138567845325, 40.745088008141636], [-74.0112303805723, 40.74507583066286], [-74.0111541917691, 40.74544637808411], [-74.01116709976122, 40.74546035254014], [-74.01173958552815, 40.74551991819036], [-74.01179527645735, 40.745154666985165], [-74.01178273500794, 40.74513495612853], [-74.01166900853472, 40.745127331191576], [-74.01167067583798, 40.74511397733999], [-74.01183642872417, 40.7451259636789], [-74.01176635449525, 40.74557798004365], [-74.0117827582809, 40.7456015722556], [-74.01171897530912, 40.745939844997956], [-74.01167885505596, 40.74597946181613], [-74.01055524902243, 40.74587110442307], [-74.01055133475727, 40.74590288399987], [-74.01012821388646, 40.745857238929176], [-74.01012821162075, 40.74584233546322], [-74.00994668462282, 40.74581951444579], [-74.0099480791384, 40.74580017091213], [-74.00946389855972, 40.74575014365962], [-74.0093636273423, 40.746335601977414], [-74.01153382764763, 40.74656775471247], [-74.01159123434022, 40.74660150547614], [-74.01153307246703, 40.746966826948174], [-74.01151183018257, 40.74698460360064], [-74.00924314658675, 40.74676279075389], [-74.00913736259926, 40.747359762803164], [-74.00956047962374, 40.7474027996047], [-74.00956826626557, 40.747371083406755], [-74.00955039867242, 40.74737070611299], [-74.00955155415365, 40.74733934176806], [-74.00996384996873, 40.747377803012704], [-74.00995838445456, 40.74741167208301], [-74.00990669970037, 40.7474068496086], [-74.00990158912964, 40.74743848434909], [-74.01135675337726, 40.74759241834699], [-74.0114067393552, 40.74763055006822], [-74.01134693158474, 40.74797620599534], [-74.0113035299375, 40.74801457190906], [-74.00905847901343, 40.74778564533301], [-74.00894606502322, 40.74841189316889], [-74.00897918405973, 40.748412709627104], [-74.00897918237624, 40.748400219380656], [-74.00907100927556, 40.748409767206574], [-74.00907390770351, 40.748395061701004], [-74.00941511636567, 40.74842958691745], [-74.00952336741516, 40.74844795680842], [-74.0095188236012, 40.74847354043612], [-74.01116687561544, 40.74864504676633], [-74.01121561813416, 40.74867799224372], [-74.01114914281891, 40.749025747265065], [-74.01110891182985, 40.749049875919766], [-74.0099481793803, 40.74893198800588], [-74.00956174747358, 40.749969975199505], [-74.00925340917918, 40.7499852057221], [-74.00910453215725, 40.750371069730505], [-74.01067737532614, 40.75102267447709], [-74.01056463476439, 40.75132146210147], [-74.00900098259456, 40.75064818378275], [-74.00870618650585, 40.75142680500349], [-74.00873137829981, 40.7514658949699], [-74.0086672907182, 40.75162819722093], [-74.00862089839437, 40.75165257792263], [-74.00853256925024, 40.7518836093045], [-74.00876004993508, 40.75194801420727], [-74.00914082120002, 40.75209759409922], [-74.00912661123245, 40.75211689573511], [-74.00874567715042, 40.751964395327185], [-74.0086511593681, 40.75193951261581], [-74.0086431823763, 40.75195650203211], [-74.00896912527918, 40.752076791478906], [-74.00895742294804, 40.75209022513113], [-74.0090389596997, 40.75212515565005], [-74.00910757975159, 40.75213971211202], [-74.00905774009662, 40.752214351243374], [-74.00892887650475, 40.75214400187035], [-74.00891472422606, 40.752163628476005], [-74.008590531017, 40.75202810543453], [-74.00858095760466, 40.752043882411776], [-74.0093408924528, 40.752355609545724], [-74.00932795206229, 40.752373503046314], [-74.008478955728, 40.75201857192007], [-74.00842636447226, 40.752157850239456], [-74.00881779819426, 40.752324345854355], [-74.00880273703076, 40.75234485403741], [-74.0088394166214, 40.752358816534866], [-74.00885173565308, 40.752342281773124], [-74.00986566961524, 40.752763413139434], [-74.00984627922618, 40.75278544195958], [-74.00988922619958, 40.75280368102833], [-74.00990631519599, 40.752780411198536], [-74.0099905581975, 40.752816187149286], [-74.00992010631792, 40.752912125514555], [-74.00997058797022, 40.752933564153324], [-74.00991916275493, 40.753003591459375], [-74.00978913116428, 40.752948370087864], [-74.00988774868318, 40.7528140776535], [-74.00983854674402, 40.752794967983235], [-74.00983056913984, 40.75280346424475], [-74.00882994505395, 40.75238001600731], [-74.00883632714998, 40.752371521109716], [-74.00879210090847, 40.75235213837968], [-74.00868792219572, 40.752493998628566], [-74.00835352838843, 40.75235073934248], [-74.00761949611852, 40.75428184177427], [-74.00774404830214, 40.754336801931885], [-74.00759618989146, 40.75453055073434], [-74.00747157990921, 40.754477019921445], [-74.00728499944323, 40.75473556820333], [-74.00741362036906, 40.75478930266961], [-74.00727181174769, 40.754985594535405], [-74.00714468360972, 40.7549324811736], [-74.00541885841005, 40.757323140349364], [-74.00521187705773, 40.75723199854007], [-74.00480392560185, 40.75780984316487], [-74.00527894797891, 40.75802855492843], [-74.0050310513664, 40.758357016473305], [-74.00699375268466, 40.759176147642805], [-74.00700358904015, 40.75923187034123], [-74.00652959987842, 40.759874751241384], [-74.00650687640183, 40.75989203231737], [-74.0064435290131, 40.75989046046476], [-74.00631515935252, 40.7598428220448], [-74.00450483093914, 40.75908499655287], [-74.00420629125391, 40.759501707688564], [-74.00390742032769, 40.75937569218369], [-74.00380657835007, 40.759510731466186], [-74.00424697128062, 40.759699214171576], [-74.00414863814689, 40.759835914170964], [-74.00431889425076, 40.75991068576362], [-74.00426869650673, 40.75995927951608], [-74.00421059345653, 40.75992456661018], [-74.00422266067, 40.759913103043814], [-74.00413171622799, 40.759861642396196], [-74.00411162007795, 40.75989300730739], [-74.00366891453541, 40.75970596957675], [-74.00357251040076, 40.75984655897331], [-74.00392854933564, 40.76000301972061], [-74.00313338991401, 40.76107834509648], [-74.00278691552613, 40.76092896970349], [-74.00233528130057, 40.7615437270018], [-74.00454520983433, 40.76249280194501], [-74.00455641560922, 40.76252426502522], [-74.00444951527277, 40.76266456720016], [-74.00439976203518, 40.76267135909899], [-74.0022008207327, 40.76172843222665], [-74.00153309066981, 40.76264459812778], [-74.00375735037694, 40.76358224164074], [-74.00361214794175, 40.76377704390989], [-74.001386036986, 40.76285009500206], [-74.00097308022016, 40.76342027172584], [-74.00314976988994, 40.76433288868739], [-74.00294809515722, 40.764616835931506], [-74.00306161234066, 40.76466578265359], [-74.00313458336224, 40.764649598206894], [-74.00316194577044, 40.764612610454805], [-74.00322275585363, 40.7646380376704], [-74.00315587058186, 40.76473050988013], [-74.0030889801569, 40.76474438198693], [-73.99992712367728, 40.763406528479514], [-73.99963853555371, 40.763569070990975], [-73.99962263458187, 40.76355908121063], [-73.99915098087908, 40.764205259582866], [-74.00227436642373, 40.76552518109975], [-74.00228802371481, 40.76556154379539], [-74.00205713831564, 40.76587739041879], [-74.00202454330335, 40.76589326657056], [-73.99888473174988, 40.76456937704867], [-73.9985763853054, 40.764998607270954], [-73.99859978707626, 40.76507334028613], [-73.9986653047344, 40.765104480747354], [-73.99868637477219, 40.76513739426793], [-73.99868870694563, 40.76520857045003], [-73.99863371556073, 40.765260168741406], [-73.99843830371466, 40.76531621383403], [-73.9982709030835, 40.76555223341343], [-73.9982816070953, 40.76556777493494], [-74.00154217871203, 40.76694470253284], [-74.00157335385268, 40.76697719221087], [-74.00139437159497, 40.76723004773319], [-74.00136434612979, 40.76724936397126], [-74.00131469636004, 40.767251120050105], [-73.9981567843898, 40.76589403537427], [-73.99814818647367, 40.76590560707515], [-73.99806675905354, 40.76587188113588], [-73.99737808447968, 40.76682338587715], [-74.00062837395305, 40.76820311105888], [-74.000650167862, 40.76822037378683], [-74.00064950530418, 40.76824523610574], [-74.00045489336716, 40.76850419568019], [-74.00038586489076, 40.76850419593203], [-73.99715588949213, 40.76712869617297], [-73.9964571540504, 40.76809881579581], [-73.999728191901, 40.76947350663388], [-73.99973590247853, 40.7695061773317], [-73.99955518930786, 40.76975080774024], [-73.99951552161613, 40.769767565837995], [-73.99947253734024, 40.76976421547191], [-73.99707176039311, 40.76873264357703], [-73.99702628821073, 40.768795515624014], [-73.99715035477146, 40.76884738771357], [-73.99701071413826, 40.7690287906538], [-73.99689311312369, 40.768979629322175], [-73.99657126439577, 40.76942456827401], [-73.99902682832902, 40.77046327298225], [-73.99876206914315, 40.770825056709384], [-73.99631327022085, 40.76979883633659], [-73.99588004351685, 40.77040057951501], [-73.99601693196199, 40.77045484888636], [-73.99590077425034, 40.770613123501136], [-73.99576733283618, 40.77055459595407], [-73.99542474436302, 40.771031615168134], [-73.99575648212901, 40.771160668465974], [-73.9957085906995, 40.771225812533096], [-73.99579774020454, 40.771282562764256], [-73.99581687579044, 40.771256516415725], [-73.99591283603844, 40.771297855623935], [-73.99592803670673, 40.77127510283781], [-73.99600175749052, 40.77130746533072], [-73.99589990100937, 40.77145029858229], [-73.99585437252811, 40.77149918074862], [-73.99579117748779, 40.77147551882057], [-73.99582805886243, 40.77142166722259], [-73.99572993314408, 40.77137881879389], [-73.99575123412828, 40.77135428227738], [-73.99562982240307, 40.771325292628234], [-73.99562306904366, 40.77133695751303], [-73.99530566365357, 40.77119600490969], [-73.99512395556886, 40.77145073826726], [-73.99495733353699, 40.771449190697886], [-73.99492385794417, 40.771485605937656], [-73.99492582120637, 40.771516042405665], [-73.99500915438725, 40.77160733994432], [-73.9949768849473, 40.77165877492349], [-73.99707328169315, 40.7725428689021], [-73.9968729144914, 40.77281748122877], [-73.99477407930823, 40.77192954753037], [-73.99444501293384, 40.772377126588495], [-73.99622972001936, 40.77312897504549], [-73.99612087994667, 40.77327539109318], [-73.99434191991621, 40.7725247819436], [-73.99424979228651, 40.77252648513829], [-73.99416328456306, 40.772487191021455], [-73.99383108203092, 40.77293178785083], [-73.9938875450246, 40.77295574416407], [-73.99396258551457, 40.7729446539091], [-73.99401262480514, 40.77288284612953], [-73.99412205808243, 40.772924058523635], [-73.99413665258861, 40.772901870174444], [-73.99430134239114, 40.77297002866411], [-73.99428153513446, 40.77299380156694], [-73.99437655275096, 40.773039551101554], [-73.99429402982382, 40.77315624399198], [-73.99502327586075, 40.773481196576356], [-73.99508939189286, 40.773388475039326], [-73.99501396371679, 40.77335803492454], [-73.99505028469918, 40.77329715319003], [-73.9962406518988, 40.773789791397846], [-73.99619583747098, 40.77385235618427], [-73.99610846880843, 40.77381631601527], [-73.99606316808179, 40.77388688661024], [-73.99612850482784, 40.773913984903324], [-73.99609880736975, 40.77395180529926], [-73.99617945997379, 40.77398695435169], [-73.99609524522621, 40.774086186437806], [-73.9939369418221, 40.773179510967076], [-73.9938629532914, 40.77326952907245], [-73.99376791399209, 40.773483994507956], [-73.99362279521324, 40.77363229021255], [-73.99341175671518, 40.773802612424106], [-73.99335894150748, 40.77392688015481], [-73.99262266386542, 40.77497405603711], [-73.9925778427661, 40.774956016359596], [-73.99253003775029, 40.775000000000006], [-73.94272598102067, 40.775000000000006], [-73.94293043781397, 40.77467626803599]], [[-74.0100880336451, 40.74248815567387], [-74.01019827672162, 40.74233375374001], [-74.0098223415751, 40.74216605205827], [-74.01016559689417, 40.74167234807372], [-74.00956912252538, 40.741422703061644], [-74.00952151608975, 40.74148560744002], [-74.00936174828294, 40.74142362374203], [-74.00923779939562, 40.74207162715806], [-74.00941384793754, 40.742129870171006], [-74.00937125244927, 40.74218515028482], [-74.0100880336451, 40.74248815567387]]]]}}]}
